{
    "version": 0.6,
    "generator": "Overpass API 0.7.57.1 74a55df1",
    "osm3s": {
      "timestamp_osm_base": "2024-05-06T19:21:41Z",
      "timestamp_areas_base": "2024-05-06T13:33:45Z",
      "copyright": "The data included in this document is from www.openstreetmap.org. The data is made available under ODbL."
    },
    "elements": [
  
  {
    "type": "node",
    "id": 477199344,
    "lat": 56.8399183,
    "lon": 60.6249002,
    "tags": {
      "amenity": "clinic",
      "contact:phone": "+73433500795",
      "name": "Поликлиника № 3 при ЦГКБ № 1",
      "opening_hours": "Mo-Fr 07:30-18:30; Sa,Su 09:00-15:00"
    }
  },
  {
    "type": "node",
    "id": 535407052,
    "lat": 56.8242484,
    "lon": 60.6279091,
    "tags": {
      "addr:housenumber": "27А",
      "addr:street": "улица Декабристов",
      "amenity": "clinic",
      "name": "Поликлиника № 1 при ЦГКБ № 1"
    }
  },
  {
    "type": "node",
    "id": 622506715,
    "lat": 56.8581173,
    "lon": 60.6258352,
    "tags": {
      "amenity": "clinic",
      "name": "Поликлинника №1, Детска городская больница №10"
    }
  },
  {
    "type": "node",
    "id": 651931751,
    "lat": 56.8076869,
    "lon": 60.6264807,
    "tags": {
      "amenity": "clinic",
      "emergency": "no",
      "name": "Детская городская поликлиника №13"
    }
  },
  {
    "type": "node",
    "id": 679134191,
    "lat": 56.8268007,
    "lon": 60.6403321,
    "tags": {
      "amenity": "clinic",
      "name": "Детская поликлиника № 13 (отделение № 1)"
    }
  },
  {
    "type": "node",
    "id": 731242336,
    "lat": 56.8690536,
    "lon": 60.5518304,
    "tags": {
      "addr:housenumber": "160",
      "addr:street": "улица Бебеля",
      "amenity": "clinic",
      "name": "Поликлиника № 1"
    }
  },
  {
    "type": "node",
    "id": 939908529,
    "lat": 56.8405461,
    "lon": 60.5798825,
    "tags": {
      "amenity": "clinic",
      "name": "Поликлиника № 2 при ЦГБ № 2",
      "opening_hours": "Mo-Fr 07:30-20:00; Sa-Su 09:00-15:00",
      "phone": "+7 (343) 389-88-80",
      "website": "http://больница2.екатеринбург.рф"
    }
  },
  {
    "type": "node",
    "id": 995501442,
    "lat": 56.8085712,
    "lon": 60.5346714,
    "tags": {
      "amenity": "clinic",
      "name": "Детская поликлиника № 1 ОДКБ № 1"
    }
  },
  {
    "type": "node",
    "id": 1102916341,
    "lat": 56.8180829,
    "lon": 60.6314500,
    "tags": {
      "amenity": "clinic",
      "health_facility:type": "clinic",
      "name": "Детская городская поликлиника № 13",
      "opening_hours": "Mo-Fr 07:30-20:00",
      "provided_for:adolescent": "yes",
      "provided_for:child": "yes",
      "provided_for:infant": "yes",
      "provided_for:toddler": "yes"
    }
  },
  {
    "type": "node",
    "id": 1224417448,
    "lat": 56.8118789,
    "lon": 60.5574580,
    "tags": {
      "amenity": "clinic",
      "healthcare": "clinic",
      "name": "Поликлиника ГКБ № 40"
    }
  },
  {
    "type": "node",
    "id": 1224418738,
    "lat": 56.8097489,
    "lon": 60.5620620,
    "tags": {
      "amenity": "clinic",
      "healthcare": "clinic",
      "name": "Поликлиника ОКБ № 1"
    }
  },
  {
    "type": "node",
    "id": 1277550877,
    "lat": 56.7687514,
    "lon": 60.6066280,
    "tags": {
      "amenity": "clinic",
      "name": "Детская поликлиника № 1"
    }
  },
  {
    "type": "node",
    "id": 2016716763,
    "lat": 56.7617223,
    "lon": 60.7159541,
    "tags": {
      "amenity": "clinic",
      "name": "Поликлиника № 2"
    }
  },
  {
    "type": "node",
    "id": 2151671375,
    "lat": 56.7614982,
    "lon": 60.7156631,
    "tags": {
      "amenity": "clinic",
      "name": "Детская стоматологическая поликлиника ДГБ № 8"
    }
  },
  {
    "type": "node",
    "id": 2307214094,
    "lat": 56.8425563,
    "lon": 60.6136810,
    "tags": {
      "amenity": "clinic",
      "healthcare": "clinic",
      "name": "Поликлиника № 2 ЦГБ № 7"
    }
  },
  {
    "type": "node",
    "id": 2315501042,
    "lat": 56.8013579,
    "lon": 60.5531975,
    "tags": {
      "amenity": "clinic",
      "name": "Детская поликлиника № 2 ДГКБ № 5"
    }
  },
  {
    "type": "node",
    "id": 2326573858,
    "lat": 56.8094703,
    "lon": 60.5628751,
    "tags": {
      "amenity": "clinic",
      "contact:email": "zapisokb1@okb1.ru",
      "contact:phone": "+73433511655",
      "contact:website": "http://www.okb1.ru/",
      "healthcare": "clinic",
      "name": "Хозрасчётная поликлиника ОКБ № 1",
      "opening_hours": "Mo-Fr 08:00-17:00"
    }
  },
  {
    "type": "node",
    "id": 2334077638,
    "lat": 56.8264690,
    "lon": 60.5849877,
    "tags": {
      "amenity": "clinic",
      "name": "Поликлиника № 2 ДГБ № 11",
      "ref": "2"
    }
  },
  {
    "type": "node",
    "id": 2334077639,
    "lat": 56.7978262,
    "lon": 60.4860876,
    "tags": {
      "amenity": "clinic",
      "name": "Поликлиника № 2 им. Миславского",
      "ref": "2"
    }
  },
  {
    "type": "node",
    "id": 2344357370,
    "lat": 56.7781772,
    "lon": 60.6329195,
    "tags": {
      "amenity": "clinic",
      "name": "Поликлиника № 3"
    }
  },
  {
    "type": "node",
    "id": 2344357373,
    "lat": 56.7588885,
    "lon": 60.7115517,
    "tags": {
      "amenity": "clinic",
      "name": "Психбольница №6, наркологическое отделение №1"
    }
  },
  {
    "type": "node",
    "id": 2446088171,
    "lat": 56.8419399,
    "lon": 60.6847878,
    "tags": {
      "amenity": "hospital",
      "name": "Детская городская поликлиника №13",
      "phone": "+73432891303",
      "website": "http://дгп13.рф"
    }
  },
  {
    "type": "node",
    "id": 2744181771,
    "lat": 56.7956581,
    "lon": 60.5109901,
    "tags": {
      "addr:city": "Екатеринбург",
      "addr:country": "RU",
      "addr:housenumber": "21",
      "addr:postcode": "620149",
      "addr:street": "улица Рябинина",
      "amenity": "clinic",
      "contact:phone": "+7 (343) 223–59–40",
      "contact:website": "cgb2.ru",
      "name": "Поликлиника № 2 ДГБ № 5",
      "opening_hours": "Mo-Fr 07:30-20:00"
    }
  },
  {
    "type": "node",
    "id": 2744181775,
    "lat": 56.7965698,
    "lon": 60.5125427,
    "tags": {
      "addr:city": "Екатеринбург",
      "addr:country": "RU",
      "addr:housenumber": "19",
      "addr:postcode": "620149",
      "addr:street": "улица Рябинина",
      "amenity": "clinic",
      "name": "Поликлиника № 4 ЦГКБ № 6",
      "opening_hours": "Mo-Fr 08:00-18:00",
      "payment:coins": "yes",
      "payment:notes": "yes",
      "phone": "+7-343-223-07-10"
    }
  },
  {
    "type": "node",
    "id": 2886856266,
    "lat": 56.8402275,
    "lon": 60.5703933,
    "tags": {
      "amenity": "clinic",
      "name": "Городская детская больница № 10"
    }
  },
  {
    "type": "node",
    "id": 3250356903,
    "lat": 56.8345784,
    "lon": 60.5519322,
    "tags": {
      "amenity": "clinic",
      "name": "Поликлиника № 1"
    }
  },
  {
    "type": "node",
    "id": 3250357690,
    "lat": 56.8321891,
    "lon": 60.5531478,
    "tags": {
      "amenity": "hospital",
      "name": "Городская клиническая больница № 33"
    }
  },
  {
    "type": "node",
    "id": 3311187481,
    "lat": 56.8614741,
    "lon": 60.6392672,
    "tags": {
      "amenity": "clinic",
      "name": "Детская городская больница №13"
    }
  },
  {
    "type": "node",
    "id": 3639313439,
    "lat": 56.8263453,
    "lon": 60.6120331,
    "tags": {
      "amenity": "clinic",
      "name": "Психиатрическая больница № 6"
    }
  },
  {
    "type": "node",
    "id": 3678381353,
    "lat": 56.8381921,
    "lon": 60.5549400,
    "tags": {
      "amenity": "clinic",
      "name": "ЕМНЦ профилактики и охраны здоровья рабочих промпредприятий, Поликлиника № 2",
      "official_name": "Федеральное бюджетное учреждение науки \"Екатеринбургский медицинский-научный центр профилактики и охраны здоровья рабочих промпредприятий\", Поликлиническое отделение №2",
      "opening_hours": "Mo-Fr 08:00-16:00"
    }
  },
  {
    "type": "node",
    "id": 4829012752,
    "lat": 56.8712880,
    "lon": 60.5192768,
    "tags": {
      "addr:city": "Екатеринбург",
      "addr:housenumber": "62",
      "addr:street": "улица Миномётчиков",
      "amenity": "clinic",
      "name": "Поликлиника №2 ДМБ №9"
    }
  },
  {
    "type": "node",
    "id": 6504554187,
    "lat": 56.8219802,
    "lon": 60.5739677,
    "tags": {
      "amenity": "clinic",
      "name": "Поликлиника № 3",
      "opening_hours": "Mo-Fr 07:30-20:00",
      "operator": "Муниципальное бюджетное учреждение \"Центральная городская больница №2 имени А.А. Миславского\""
    }
  },
  {
    "type": "node",
    "id": 9817196317,
    "lat": 56.8882241,
    "lon": 60.5706091,
    "tags": {
      "amenity": "clinic",
      "name": "Отделение Наркодиспансера №2.",
      "name:ru": "Отделение наркодиспансера №2."
    }
  },
  {
    "type": "node",
    "id": 10752988520,
    "lat": 56.8715590,
    "lon": 60.5249675,
    "tags": {
      "amenity": "clinic",
      "name": "ЦГБ №3, Поликлиника №2"
    }
  },
  {
    "type": "way",
    "id": 35678295,
    "center": {
      "lat": 56.8019336,
      "lon": 60.5540927
    },
    "nodes": [
      417751824,
      417751825,
      417751826,
      947909449,
      417751827,
      417751824
    ],
    "tags": {
      "amenity": "clinic",
      "barrier": "fence",
      "name": "Детская городская больница № 5"
    }
  },
  {
    "type": "way",
    "id": 35872200,
    "center": {
      "lat": 56.8861381,
      "lon": 60.6279506
    },
    "nodes": [
      419263042,
      419263044,
      419263047,
      419263049,
      419263042
    ],
    "tags": {
      "addr:housenumber": "11",
      "addr:street": "Калиновский переулок",
      "amenity": "clinic",
      "building": "apartments",
      "building:levels": "5",
      "name": "ДГБ №15 Поликлиника №2 отд.№ 5",
      "official_name": "Детская городская больница № 15 Поликлиника № 2 отд.№ 5"
    }
  },
  {
    "type": "way",
    "id": 39690517,
    "center": {
      "lat": 56.8215182,
      "lon": 60.5486839
    },
    "nodes": [
      475876900,
      7512360143,
      2744091982,
      2744091978,
      475876901,
      475876902,
      1110555277,
      514310759,
      10750446839,
      6566995301,
      520090288,
      520090291,
      6566995300,
      6566995303,
      7512360140,
      522013789,
      475876904,
      475876905,
      475876907,
      2744091997,
      2744091993,
      2744091991,
      475876908,
      475876900
    ],
    "tags": {
      "amenity": "hospital",
      "barrier": "fence",
      "name": "Городская больница № 41"
    }
  },
  {
    "type": "way",
    "id": 40920514,
    "center": {
      "lat": 56.8114111,
      "lon": 60.5537187
    },
    "nodes": [
      492439101,
      7178566694,
      492439107,
      492439122,
      7178566695,
      492439128,
      635762930,
      498326926,
      492439072,
      930170996,
      422443468,
      422443467,
      422443466,
      422443465,
      422443464,
      422443463,
      422443462,
      422443461,
      422443460,
      498326927,
      481246864,
      7178523453,
      481246863,
      498326928,
      498326930,
      3117919990,
      498326931,
      513703557,
      513458247,
      3764835833,
      513458229,
      513703565,
      9020258790,
      498326933,
      514423377,
      514423380,
      514118658,
      1283013661,
      514121006,
      498326934,
      3764967064,
      3764967065,
      514417858,
      514417859,
      422443442,
      422443443,
      422443444,
      514121039,
      498326939,
      492439101
    ],
    "tags": {
      "amenity": "hospital",
      "healthcare": "hospital",
      "name": "Городская клиническая больница № 40"
    }
  },
  {
    "type": "way",
    "id": 40920515,
    "center": {
      "lat": 56.8095232,
      "lon": 60.5607243
    },
    "nodes": [
      422443469,
      5028532241,
      5028532231,
      5028532310,
      5028532311,
      5028532294,
      498326940,
      5028532312,
      5028532293,
      5028532266,
      5028532265,
      5028532270,
      5028532269,
      5028532282,
      5028532273,
      5028532280,
      5028532281,
      498326941,
      498326943,
      498326944,
      5028530804,
      5028530803,
      5028530802,
      5028530801,
      5028530805,
      498326945,
      516322702,
      498326946,
      422443469
    ],
    "tags": {
      "amenity": "hospital",
      "healthcare": "hospital",
      "name": "Областная клиническая больница № 1"
    }
  },
  {
    "type": "way",
    "id": 42312584,
    "center": {
      "lat": 56.7833047,
      "lon": 60.6004566
    },
    "nodes": [
      528024240,
      528024248,
      7512575124,
      528024252,
      528024255,
      2344357381,
      2344357380,
      2344357379,
      2344357378,
      528024240
    ],
    "tags": {
      "amenity": "hospital",
      "barrier": "fence",
      "name": "Центральная городская клиническая больница № 24"
    }
  },
  {
    "type": "way",
    "id": 42453529,
    "center": {
      "lat": 56.8009042,
      "lon": 60.5566386
    },
    "nodes": [
      529961944,
      529961961,
      529961956,
      529961945,
      529961944
    ],
    "tags": {
      "amenity": "clinic",
      "healthcare": "clinic",
      "name": "Поликлиника №2 ДГБ №5"
    }
  },
  {
    "type": "way",
    "id": 42812106,
    "center": {
      "lat": 56.8244744,
      "lon": 60.6298123
    },
    "nodes": [
      5047487486,
      5047487487,
      535407058,
      535407054,
      535407066,
      535407106,
      535407102,
      2916937121,
      6736437410,
      6736437409,
      6736437466,
      5109696636,
      533566321,
      6736437467,
      6736437468,
      6736437408,
      6736437407,
      533559811,
      534131709,
      537509233,
      534128285,
      534132560,
      533559806,
      533559804,
      913115049,
      533559722,
      533559661,
      533559669,
      533559617,
      533559623,
      533559632,
      533559769,
      533559788,
      533559822,
      535407087,
      533559827,
      533559831,
      535407048,
      535407050,
      5047487482,
      5047487486
    ],
    "tags": {
      "amenity": "hospital",
      "name": "Центральная городская клиническая больница № 1"
    }
  },
  {
    "type": "way",
    "id": 43365386,
    "center": {
      "lat": 56.8939308,
      "lon": 60.4815720
    },
    "nodes": [
      545778407,
      545778411,
      545778414,
      545778417,
      545778418,
      545778420,
      545778423,
      545778431,
      545778432,
      545778433,
      545787060,
      545778436,
      545778439,
      545780921,
      545778441,
      545778442,
      545778444,
      545778446,
      545778407
    ],
    "tags": {
      "amenity": "hospital",
      "contact:phone": "+73432047809",
      "contact:website": "http://www.dmb9.ru/",
      "name": "Детская многопрофильная больница № 9",
      "official_name": "Детская городская клиническая больница № 9"
    }
  },
  {
    "type": "way",
    "id": 48364036,
    "center": {
      "lat": 56.8676130,
      "lon": 60.6403063
    },
    "nodes": [
      614349359,
      1420190848,
      1417142988,
      1417143058,
      614349357,
      875617117,
      614349350,
      2915658412,
      434440386,
      434440385,
      2915658413,
      875617152,
      875617146,
      875617154,
      1420190837,
      614349352,
      614349353,
      445437982,
      2915658411,
      1417143113,
      614349359
    ],
    "tags": {
      "addr:city": "Екатеринбург",
      "addr:street": "улица Вилонова",
      "amenity": "hospital",
      "healthcare": "hospital",
      "name": "Центральная городская больница № 7",
      "url": "http://cgb7.ru",
      "website": "http://больница7.екатеринбург.рф/"
    }
  },
  {
    "type": "way",
    "id": 48513545,
    "center": {
      "lat": 56.8925546,
      "lon": 60.5893296
    },
    "nodes": [
      616352773,
      616352774,
      1132772923,
      1132773167,
      616352775,
      489168243,
      489168245,
      489168246,
      489168247,
      489168201,
      5655351072,
      489168206,
      489168208,
      616352776,
      616352777,
      616352773
    ],
    "tags": {
      "addr:housenumber": "13",
      "addr:street": "проспект Орджоникидзе",
      "amenity": "hospital",
      "barrier": "fence",
      "name": "Детская больница № 15",
      "name:ru": "ДГБ №15 Поликлиника №1 Отделение №2",
      "opening_hours": "Mo-Fr 08:00-20:00",
      "phone": "+7 343 3606030",
      "ref": "15",
      "website": "https://dgb15.ru/poliklinika_1_2/"
    }
  },
  {
    "type": "way",
    "id": 48852121,
    "center": {
      "lat": 56.8271345,
      "lon": 60.6423264
    },
    "nodes": [
      619782746,
      619782748,
      619782751,
      619782753,
      619782755,
      619782746
    ],
    "tags": {
      "amenity": "hospital",
      "barrier": "fence",
      "name": "Детская городская поликлиника №13"
    }
  },
  {
    "type": "way",
    "id": 53283829,
    "center": {
      "lat": 56.8451504,
      "lon": 60.5841139
    },
    "nodes": [
      674183648,
      674928836,
      4365482696,
      674183660,
      4365482380,
      4365482381,
      4365482379,
      674183668,
      674183680,
      675955330,
      4365482375,
      4365482374,
      674928838,
      674928839,
      674183648
    ],
    "tags": {
      "amenity": "hospital",
      "barrier": "fence",
      "name": "Детская городская больница № 11"
    }
  },
  {
    "type": "way",
    "id": 56133409,
    "center": {
      "lat": 56.7606911,
      "lon": 60.6109357
    },
    "nodes": [
      704423883,
      704423942,
      704424103,
      704423916,
      704424068,
      704423949,
      704424108,
      704423921,
      704423883
    ],
    "tags": {
      "addr:city": "Екатеринбург",
      "addr:housenumber": "62",
      "addr:street": "Селькоровская улица",
      "amenity": "clinic",
      "building": "yes",
      "healthcare": "clinic",
      "name": "Поликлиника Центральной городской клинической больницы №24"
    }
  },
  {
    "type": "way",
    "id": 73965691,
    "center": {
      "lat": 56.8956287,
      "lon": 60.6181858
    },
    "nodes": [
      412820227,
      875233231,
      875233208,
      875233233,
      875233219,
      875233254,
      875233229,
      875233270,
      412820017,
      412820227
    ],
    "tags": {
      "addr:housenumber": "55А",
      "addr:street": "улица Стачек",
      "amenity": "hospital",
      "building": "yes",
      "building:levels": "1",
      "healthcare:speciality": "radiology",
      "name": "ДГБ №15 Отделение неотложной помощи",
      "operator": "Детская городская больница №15",
      "website": "https://dgb15.ru/neotlozhnaya_pjomosch/"
    }
  },
  {
    "type": "way",
    "id": 77853683,
    "center": {
      "lat": 56.8867426,
      "lon": 60.6322061
    },
    "nodes": [
      915243119,
      1512465071,
      1433205116,
      3979971961,
      3979971963,
      1433205117,
      2264372298,
      915243123,
      2261611082,
      915243124,
      915243125,
      4369768070,
      4369768074,
      4369768067,
      4377809296,
      4377807988,
      4377809290,
      4377809300,
      915243126,
      4377807982,
      915243130,
      915243135,
      4377830034,
      1512465079,
      915243119
    ],
    "tags": {
      "amenity": "hospital",
      "barrier": "fence",
      "name": "Городская больница № 23",
      "ref": "23"
    }
  },
  {
    "type": "way",
    "id": 80567618,
    "center": {
      "lat": 56.8427398,
      "lon": 60.5800019
    },
    "nodes": [
      939908533,
      1723702840,
      939908537,
      5619656202,
      5619656198,
      939908528,
      6690419525,
      939908531,
      3999489200,
      3999489199,
      939908527,
      939908533
    ],
    "tags": {
      "addr:housenumber": "5",
      "addr:street": "улица Челюскинцев",
      "amenity": "hospital",
      "barrier": "fence",
      "name": "Центральная городская больница № 2",
      "opening_hours": "Mo-Fr 08:00-15:00",
      "phone": "+7 (343) 368-40-10"
    }
  },
  {
    "type": "way",
    "id": 83334943,
    "center": {
      "lat": 56.8359497,
      "lon": 60.6587962
    },
    "nodes": [
      969721663,
      601332139,
      601332143,
      969721654,
      3196524567,
      1274542592,
      969721655,
      1274542613,
      3196524573,
      969721638,
      3196524571,
      969721663
    ],
    "tags": {
      "amenity": "clinic",
      "barrier": "wall",
      "height": "2",
      "material": "concrete",
      "name": "Детская городская поликлиника №13"
    }
  },
  {
    "type": "way",
    "id": 85645545,
    "center": {
      "lat": 56.9043158,
      "lon": 60.6107040
    },
    "nodes": [
      993633537,
      993633592,
      993633553,
      993633496,
      993633589,
      993633573,
      993633535,
      993633576,
      993633532,
      993633520,
      993633570,
      993633537
    ],
    "tags": {
      "amenity": "hospital",
      "barrier": "fence",
      "healthcare:speciality": "child_psychiatry",
      "name": "Психиатрическая больница №5"
    }
  },
  {
    "type": "way",
    "id": 85697251,
    "center": {
      "lat": 56.8086899,
      "lon": 60.5371598
    },
    "nodes": [
      994527287,
      974105301,
      995501461,
      471266240,
      471266241,
      994527341,
      2477823396,
      2477823395,
      471266226,
      471266224,
      471266223,
      994527343,
      994527344,
      994527345,
      994527349,
      1954238427,
      1954238435,
      994527287
    ],
    "tags": {
      "amenity": "hospital",
      "name": "Областная детская клиническая больница № 1"
    }
  },
  {
    "type": "way",
    "id": 85697254,
    "center": {
      "lat": 56.8073087,
      "lon": 60.5387243
    },
    "nodes": [
      471266226,
      995468702,
      995468715,
      3784210095,
      6285453213,
      471266227,
      508054663,
      603476822,
      3792318119,
      2271650483,
      603476823,
      603476824,
      994527344,
      994527343,
      471266223,
      471266224,
      471266226
    ],
    "tags": {
      "amenity": "hospital",
      "name": "Центральная городская больница № 6"
    }
  },
  {
    "type": "way",
    "id": 113543297,
    "center": {
      "lat": 56.8695042,
      "lon": 60.7257775
    },
    "nodes": [
      1287315051,
      7545816222,
      1287315088,
      1287315047,
      496164565,
      1287315063,
      1280201620,
      1287315049,
      1287315034,
      496164579,
      1287315068,
      1287315077,
      1287315051
    ],
    "tags": {
      "amenity": "hospital",
      "barrier": "fence",
      "healthcare": "hospital",
      "name": "Детская больница № 5, неврологическое отделение"
    }
  },
  {
    "type": "way",
    "id": 117388788,
    "center": {
      "lat": 56.8522455,
      "lon": 60.6031566
    },
    "nodes": [
      1322303816,
      1322303854,
      1322303810,
      1322303749,
      4728937256,
      1322303774,
      1322303819,
      1322303816
    ],
    "tags": {
      "amenity": "hospital",
      "name": "Центральная городская больница № 3"
    }
  },
  {
    "type": "way",
    "id": 124693230,
    "center": {
      "lat": 56.8381038,
      "lon": 60.5577676
    },
    "nodes": [
      1387071062,
      5867373597,
      5867373596,
      5867373595,
      5867373598,
      1387071061,
      1387071066,
      1387071065,
      1387071047,
      1387071043,
      1387071042,
      1387071040,
      1387071031,
      1387071032,
      1387071034,
      454798036,
      454798034,
      3728958171,
      1387071058,
      1387071062
    ],
    "tags": {
      "amenity": "hospital",
      "check_date": "2023-01-06",
      "name": "Городская клиническая больница № 11",
      "ref": "11"
    }
  },
  {
    "type": "way",
    "id": 136734545,
    "center": {
      "lat": 56.7512747,
      "lon": 60.7037809
    },
    "nodes": [
      1500185664,
      1500185613,
      1500185564,
      1500185597,
      1500185606,
      1500185669,
      1500185694,
      1500185664
    ],
    "tags": {
      "amenity": "clinic",
      "name": "Поликлиника № 1 ЦГБ № 20"
    }
  },
  {
    "type": "way",
    "id": 155090931,
    "center": {
      "lat": 56.8904245,
      "lon": 60.6033628
    },
    "nodes": [
      1674168162,
      419238782,
      419238785,
      419238779,
      419238778,
      419238781,
      419238780,
      419238783,
      419238788,
      419238784,
      419238767,
      869166163,
      869166156,
      1674168237,
      1674168235,
      1674168232,
      1674168230,
      844607572,
      1674168173,
      4301625494,
      1674168172,
      1674168171,
      1674168170,
      1674168169,
      1674168167,
      1674168162
    ],
    "tags": {
      "amenity": "hospital",
      "name": "Психиатрическая больница № 3",
      "ref": "3"
    }
  },
  {
    "type": "way",
    "id": 164038242,
    "center": {
      "lat": 56.8149367,
      "lon": 60.7231136
    },
    "nodes": [
      1756984491,
      1756984463,
      9160190049,
      3581730641,
      1756984502,
      1756984530,
      8595169758,
      442621696,
      8595169757,
      1756984491
    ],
    "tags": {
      "amenity": "hospital",
      "name": "Противотуберкулёзный диспансер №2"
    }
  },
  {
    "type": "way",
    "id": 164038243,
    "center": {
      "lat": 56.8132645,
      "lon": 60.7224724
    },
    "nodes": [
      1756984486,
      8595170520,
      1756984466,
      1756984438,
      1756984392,
      2951035714,
      2951035713,
      2951035712,
      2951035710,
      2951035711,
      2951035709,
      442634188,
      1756984437,
      1756984486
    ],
    "tags": {
      "amenity": "hospital",
      "name": "Психиатрическая больница № 6"
    }
  },
  {
    "type": "way",
    "id": 172834686,
    "center": {
      "lat": 56.9020876,
      "lon": 60.5931300
    },
    "nodes": [
      1836838824,
      1836838859,
      1836838869,
      1836838809,
      1836838719,
      1836838642,
      1836838824
    ],
    "tags": {
      "amenity": "hospital",
      "barrier": "fence",
      "name": "Детская городская больница № 15",
      "name:en": "Children's city hospital № 15",
      "name:ru": "ДГБ №15 Дневной стационар №1",
      "opening_hours": "Mo-Fr 08:00-16:00",
      "phone": "+7 343 3459125",
      "website": "https://dgb15.ru/dnevnoy_stacionar_1/"
    }
  },
  {
    "type": "way",
    "id": 205179888,
    "center": {
      "lat": 56.7659075,
      "lon": 60.7084518
    },
    "nodes": [
      652672503,
      500813708,
      500813707,
      7499131725,
      2151573174,
      652672503
    ],
    "tags": {
      "amenity": "hospital",
      "barrier": "fence",
      "name": "Противотуберкулёзный диспансер № 7"
    }
  },
  {
    "type": "way",
    "id": 205179889,
    "center": {
      "lat": 56.7633801,
      "lon": 60.7088818
    },
    "nodes": [
      2151573132,
      650017062,
      9357376701,
      9357376697,
      9357376694,
      9357376700,
      2154056025,
      2151573083,
      665062709,
      2151573073,
      2154055996,
      2154056006,
      2154056013,
      2154056015,
      2154056016,
      11584755225,
      2154056031,
      2154059916,
      11584755226,
      9357388221,
      2151573132
    ],
    "tags": {
      "amenity": "hospital",
      "barrier": "fence",
      "healthcare": "hospital",
      "name": "Центральная городская больница № 20"
    }
  },
  {
    "type": "way",
    "id": 223500582,
    "center": {
      "lat": 56.7879807,
      "lon": 60.7767846
    },
    "nodes": [
      1163829092,
      1163829017,
      1163829052,
      1163829031,
      1163829068,
      1163829055,
      1163829092
    ],
    "tags": {
      "amenity": "hospital",
      "name": "Городская травматологическая больница № 36",
      "phone": "+7 (343) 252-01-88",
      "website": "http://больница36.екатеринбург.рф/"
    }
  },
  {
    "type": "way",
    "id": 223820757,
    "center": {
      "lat": 56.8406447,
      "lon": 60.5994094
    },
    "nodes": [
      756099608,
      664588483,
      2326871773,
      2326871772,
      1438435652,
      3942824093,
      664588452,
      664588454,
      664588449,
      664588451,
      756106952,
      664588537,
      664588546,
      1241659504,
      756099668,
      664588552,
      664588553,
      756099648,
      756099642,
      756099635,
      664588550,
      6511741291,
      664588548,
      756099993,
      756099602,
      756099608
    ],
    "tags": {
      "amenity": "hospital",
      "name": "Свердловская областная больница № 2",
      "opening_hours": "Mo-Su 08:00-19:00",
      "phone": "+73433710431",
      "website": "http://obl2.ru"
    }
  },
  {
    "type": "way",
    "id": 225679322,
    "center": {
      "lat": 56.8534362,
      "lon": 60.5799309
    },
    "nodes": [
      2344357387,
      2344357389,
      2344357388,
      2344357386,
      2344357387
    ],
    "tags": {
      "amenity": "hospital",
      "name": "Детская больница № 16"
    }
  },
  {
    "type": "way",
    "id": 225679323,
    "center": {
      "lat": 56.7820014,
      "lon": 60.6009571
    },
    "nodes": [
      2344357380,
      1703144292,
      2344357376,
      2344357377,
      2344357378,
      2344357379,
      2344357380
    ],
    "tags": {
      "amenity": "hospital",
      "name": "Детская городская больница № 8"
    }
  },
  {
    "type": "way",
    "id": 266150711,
    "center": {
      "lat": 56.8908107,
      "lon": 60.6208264
    },
    "nodes": [
      2717310054,
      2717310070,
      2717310064,
      2717310061,
      2717310051,
      2717310067,
      2717310069,
      2717310066,
      2717310057,
      2717310062,
      2717310054
    ],
    "tags": {
      "amenity": "clinic",
      "barrier": "fence",
      "name": "ДГБ №15 Поликлиника №2 Дневной стац.№2",
      "official_name": "Детская городская больница № 15 Поликлиника № 2 Дневной стационар № 2",
      "source": "Bing"
    }
  },
  {
    "type": "way",
    "id": 302576514,
    "center": {
      "lat": 56.8253171,
      "lon": 60.6751654
    },
    "nodes": [
      3068257651,
      3068257642,
      3068257638,
      760199106,
      3068257647,
      3068257649,
      3068257650,
      3068257651
    ],
    "tags": {
      "amenity": "hospital",
      "barrier": "fence",
      "fence_type": "chain_link",
      "name": "Детская городская поликлиника №13",
      "opening_hours": "Mo-Fr 08:00-18:00"
    }
  },
  {
    "type": "way",
    "id": 673795651,
    "center": {
      "lat": 56.7830210,
      "lon": 60.5871706
    },
    "nodes": [
      6310012887,
      6307636632,
      6307636640,
      6307636641,
      6310012885,
      6310012888,
      6310012887
    ],
    "tags": {
      "amenity": "clinic",
      "name": "Военный госпиталь № 354",
      "ref": "354"
    }
  },
  {
    "type": "way",
    "id": 706365632,
    "center": {
      "lat": 56.7581154,
      "lon": 60.7004458
    },
    "nodes": [
      6637262641,
      9177439286,
      9177454617,
      6637262642,
      6637262643,
      6637262644,
      6637262645,
      9177449706,
      6637262646,
      6637262647,
      6637262648,
      6637262641
    ],
    "tags": {
      "addr:city": "Екатеринбург",
      "addr:housenumber": "77А",
      "addr:street": "Профсоюзная улица",
      "amenity": "hospital",
      "building:levels": "2",
      "healthcare": "hospital",
      "name": "Психиатрическая больница №6"
    }
  },
  {
    "type": "way",
    "id": 839646154,
    "center": {
      "lat": 56.8367045,
      "lon": 60.6624950
    },
    "nodes": [
      7835087806,
      11288234492,
      7835087803,
      11288226583,
      7835087804,
      11288234489,
      7835087805,
      7835087806
    ],
    "tags": {
      "amenity": "clinic",
      "building:levels": "4",
      "building:part": "yes",
      "name": "Детская поликлиника №13"
    }
  },
  {
    "type": "relation",
    "id": 3459070,
    "center": {
      "lat": 56.8209940,
      "lon": 60.5990512
    },
    "members": [
      {
        "type": "way",
        "ref": 257672793,
        "role": "outer"
      },
      {
        "type": "way",
        "ref": 257672783,
        "role": "outer"
      },
      {
        "type": "way",
        "ref": 257672791,
        "role": "outer"
      },
      {
        "type": "way",
        "ref": 257672785,
        "role": "outer"
      },
      {
        "type": "way",
        "ref": 257672784,
        "role": "outer"
      },
      {
        "type": "way",
        "ref": 257672787,
        "role": "outer"
      },
      {
        "type": "way",
        "ref": 50837334,
        "role": "outer"
      },
      {
        "type": "way",
        "ref": 60732144,
        "role": "outer"
      },
      {
        "type": "way",
        "ref": 258164628,
        "role": "outer"
      },
      {
        "type": "way",
        "ref": 257672792,
        "role": "outer"
      },
      {
        "type": "way",
        "ref": 258143330,
        "role": "outer"
      },
      {
        "type": "way",
        "ref": 257978577,
        "role": "outer"
      },
      {
        "type": "way",
        "ref": 257978574,
        "role": "outer"
      },
      {
        "type": "way",
        "ref": 257672790,
        "role": "outer"
      },
      {
        "type": "way",
        "ref": 257672786,
        "role": "outer"
      },
      {
        "type": "way",
        "ref": 50837332,
        "role": "outer"
      },
      {
        "type": "way",
        "ref": 257978576,
        "role": "outer"
      },
      {
        "type": "way",
        "ref": 257978575,
        "role": "outer"
      }
    ],
    "tags": {
      "amenity": "hospital",
      "name": "Окружной военный клинический госпиталь № 354",
      "type": "multipolygon"
    }
  },
  {
    "type": "relation",
    "id": 3792646,
    "center": {
      "lat": 56.9042153,
      "lon": 60.5800425
    },
    "members": [
      {
        "type": "way",
        "ref": 261330750,
        "role": "outer"
      },
      {
        "type": "way",
        "ref": 285981964,
        "role": "outer"
      }
    ],
    "tags": {
      "amenity": "hospital",
      "name": "ДГБ №15 Инфекционное отделение",
      "type": "multipolygon"
    }
  },
  {
    "type": "relation",
    "id": 4244334,
    "center": {
      "lat": 56.8875132,
      "lon": 60.5733934
    },
    "members": [
      {
        "type": "way",
        "ref": 315474630,
        "role": "outer"
      },
      {
        "type": "way",
        "ref": 315474632,
        "role": "outer"
      },
      {
        "type": "way",
        "ref": 37976940,
        "role": "outer"
      },
      {
        "type": "way",
        "ref": 315474636,
        "role": "outer"
      }
    ],
    "tags": {
      "addr:housenumber": "15А",
      "addr:street": "улица 22-го Партсъезда",
      "amenity": "hospital",
      "healthcare": "hospital",
      "name": "Городская клиническая больница №14",
      "phone": "+7 (343) 227-00-90",
      "ref": "14",
      "short_name": "ГКБ №14",
      "type": "multipolygon",
      "website": "https://www.egkb14.ru/m/"
    }
  }
  
    ]
  }
  