{
    "version": 0.6,
    "generator": "Overpass API 0.7.57.1 74a55df1",
    "osm3s": {
      "timestamp_osm_base": "2024-05-06T08:38:40Z",
      "timestamp_areas_base": "2024-05-05T23:24:44Z",
      "copyright": "The data included in this document is from www.openstreetmap.org. The data is made available under ODbL."
    },
    "elements": [
  {
    "type": "node",
    "id": 650014895,
    "lat": 56.7628031,
    "lon": 60.7177377,
    "tags": {
      "amenity": "school",
      "name": "Профессионально-техническое училище"
    }
  },
  {
    "type": "node",
    "id": 1125374877,
    "lat": 56.7757738,
    "lon": 60.6612512,
    "tags": {
      "amenity": "school",
      "name": "ДЮСШ Родонит"
    }
  },
  {
    "type": "node",
    "id": 1396349847,
    "lat": 56.8318372,
    "lon": 60.6262122,
    "tags": {
      "amenity": "school",
      "contact:email": "orator66@yandex.ru",
      "contact:phone": "+7-343-2221015",
      "contact:website": "http://www.orator66.ru/",
      "name": "Школа риторики «Равновесие»"
    }
  },
  {
    "type": "node",
    "id": 1426228577,
    "lat": 56.8902947,
    "lon": 60.5914065,
    "tags": {
      "amenity": "school",
      "name": "ДЮЦ \"Контакт\""
    }
  },
  {
    "type": "node",
    "id": 1524369270,
    "lat": 56.7711633,
    "lon": 60.5978979,
    "tags": {
      "amenity": "school",
      "name": "Школа-интернат"
    }
  },
  {
    "type": "node",
    "id": 1524384009,
    "lat": 56.7885676,
    "lon": 60.6298806,
    "tags": {
      "amenity": "school",
      "name": "Гимназия №177"
    }
  },
  {
    "type": "node",
    "id": 1524384010,
    "lat": 56.7890613,
    "lon": 60.6305672,
    "tags": {
      "amenity": "school",
      "name": "Школа №197"
    }
  },
  {
    "type": "node",
    "id": 2074041963,
    "lat": 56.8526945,
    "lon": 60.6508535,
    "tags": {
      "amenity": "school",
      "name": "Детская хоровая школа №1"
    }
  },
  {
    "type": "node",
    "id": 3116309156,
    "lat": 56.8092989,
    "lon": 60.6154468,
    "tags": {
      "amenity": "school",
      "name": "Школа Студия \"Okeyprofi\""
    }
  },
  {
    "type": "node",
    "id": 3220663389,
    "lat": 56.8999485,
    "lon": 60.6180309,
    "tags": {
      "amenity": "school",
      "entrance": "yes",
      "name": "Детская школа искусств №5"
    }
  },
  {
    "type": "node",
    "id": 3807976817,
    "lat": 56.8503943,
    "lon": 60.6509934,
    "tags": {
      "alt_name": "ИРО",
      "amenity": "school",
      "name": "Институт развития образования",
      "old_name": "ИРРО"
    }
  },
  {
    "type": "node",
    "id": 4144146291,
    "lat": 56.8415960,
    "lon": 60.5708227,
    "tags": {
      "addr:housenumber": "1/1",
      "addr:street": "улица Крылова",
      "amenity": "school",
      "name": "Школа развития малыша - Кенгуру",
      "phone": "+7 343 2461820"
    }
  },
  {
    "type": "node",
    "id": 4215227555,
    "lat": 56.8397470,
    "lon": 60.5415227,
    "tags": {
      "amenity": "school",
      "name": "ДЮСШ"
    }
  },
  {
    "type": "node",
    "id": 4368228487,
    "lat": 56.9007413,
    "lon": 60.6044143,
    "tags": {
      "amenity": "school",
      "barrier": "fence",
      "name": "Детско-юношеский клуб \"Тинейджер-шоу\""
    }
  },
  {
    "type": "node",
    "id": 4568388893,
    "lat": 56.8982311,
    "lon": 60.6409643,
    "tags": {
      "amenity": "school",
      "email": "edshi15@yandex.ru",
      "name": "Школа искусств",
      "name:ru": "Екатеринбургская детская школа искусств №15",
      "phone": "+73433179710",
      "website": "http://школаискусств15.екатеринбург.рф"
    }
  },
  {
    "type": "node",
    "id": 4807736621,
    "lat": 56.7531518,
    "lon": 60.6927925,
    "tags": {
      "amenity": "school",
      "name": "Юный химмашевец",
      "name:en": "Youniy himmashevets"
    }
  },
  {
    "type": "node",
    "id": 4818632888,
    "lat": 56.8413682,
    "lon": 60.6175350,
    "tags": {
      "amenity": "school",
      "name": "Екатеринбургская детская театральная школа"
    }
  },
  {
    "type": "node",
    "id": 5209872121,
    "lat": 56.8902833,
    "lon": 60.6261538,
    "tags": {
      "amenity": "school",
      "name": "Детская Музыкальная Школа №5 им. В. В. Знаменского",
      "name:en": "Children's Music School №5 n.a. V. V. Znamensky",
      "website": "http://музшкола5.екатеринбург.рф"
    }
  },
  {
    "type": "node",
    "id": 5370820424,
    "lat": 56.8601433,
    "lon": 60.6405052,
    "tags": {
      "amenity": "school",
      "name": "Гимназия N35"
    }
  },
  {
    "type": "node",
    "id": 5530190725,
    "lat": 56.9027172,
    "lon": 60.5852414,
    "tags": {
      "amenity": "school",
      "name": "интернат #111"
    }
  },
  {
    "type": "node",
    "id": 6178879448,
    "lat": 56.7821277,
    "lon": 60.6497952,
    "tags": {
      "amenity": "school",
      "name": "Екатеринбургская детская художественная школа №3 имени А.И. Корзухина",
      "school": "art",
      "website": "http://xn--3-7sba3bfrmq8c.xn--80acgfbsl1azdqr.xn--p1ai/"
    }
  },
  {
    "type": "node",
    "id": 6797887785,
    "lat": 56.8625470,
    "lon": 60.6335857,
    "tags": {
      "addr:postcode": "620137",
      "amenity": "school",
      "name": "Академия робототехники RoboNest",
      "name:en": "Robotics academy RoboNest",
      "opening_hours": "Mo-Sa 09:00-20:00",
      "phone": "+7 343 372-07-82",
      "website": "http://robonest.ru"
    }
  },
  {
    "type": "node",
    "id": 7760308574,
    "lat": 56.7983977,
    "lon": 60.6143886,
    "tags": {
      "amenity": "school",
      "contact:email": "sadplaneta@mail.ru",
      "contact:instagram": "https://instagram.com/sadplanetaekb",
      "contact:ok": "https://ok.ru/group51573520007307",
      "contact:phone": "+7 343 2020191;+7 982 6268988",
      "contact:vk": "https://vk.com/planetasha",
      "contact:website": "https://detsadplaneta.ru/",
      "name": "Планета счастья",
      "office": "company",
      "opening_hours": "Mo-Fr 08:00-19:00",
      "operator": "Планета счастья"
    }
  },
  {
    "type": "node",
    "id": 7832425123,
    "lat": 56.8250121,
    "lon": 60.5878857,
    "tags": {
      "amenity": "school",
      "contact:email": "teatrkukol2018@mail.ru",
      "contact:facebook": "https://facebook.com/ulybkaekb",
      "contact:instagram": "https://instagram.com/ulybkaekb",
      "contact:phone": "+7 932 6048148;+7 961 7767474",
      "contact:website": "https://www.xn--80aackbe2bg5cjo1h.xn--p1ai/",
      "name": "Улыбка",
      "office": "company",
      "opening_hours": "Mo-Fr 07:30-19:00",
      "operator": "Улыбка"
    }
  },
  {
    "type": "node",
    "id": 8154393583,
    "lat": 56.9075410,
    "lon": 60.6220880,
    "tags": {
      "amenity": "school",
      "contact:email": "sergeeva_ov80@mail.ru",
      "contact:instagram": "https://instagram.com/chudesny_mir",
      "contact:phone": "+7 343 3191898;+7 922 1091898",
      "contact:vk": "https://vk.com/chudesny_mir",
      "contact:website": "https://chudesnymir.business.site/",
      "name": "Чудесный мир",
      "office": "company",
      "opening_hours": "Mo-Su 10:00-21:00",
      "operator": "Чудесный мир"
    }
  },
  {
    "type": "node",
    "id": 8314802917,
    "lat": 56.7959945,
    "lon": 60.5704346,
    "tags": {
      "amenity": "school"
    }
  },
  {
    "type": "node",
    "id": 8543072220,
    "lat": 56.8326365,
    "lon": 60.5495645,
    "tags": {
      "amenity": "school"
    }
  },
  {
    "type": "node",
    "id": 9914473217,
    "lat": 56.8371090,
    "lon": 60.6063614,
    "tags": {
      "amenity": "school",
      "name": "Sunday Rock",
      "opening_hours": "Mo-Sa 12:00-20:00",
      "phone": "+7 (343) 351-76-75",
      "website": "https://www.sundayrock.ru/"
    }
  },
  {
    "type": "node",
    "id": 9929943905,
    "lat": 56.8366594,
    "lon": 60.6001037,
    "tags": {
      "amenity": "school",
      "name": "ЕГЭбург"
    }
  },
  {
    "type": "node",
    "id": 11182928725,
    "lat": 56.7874940,
    "lon": 60.5068882,
    "tags": {
      "addr:city": "Екатеринбург",
      "addr:housenumber": "71",
      "addr:postcode": "620105",
      "addr:street": "проспект Академика Сахарова",
      "amenity": "school",
      "check_date": "2023-10-01",
      "name": "KIBERone",
      "phone": "+7 343 3288535",
      "website": "https://kiber-one.com"
    }
  },
  {
    "type": "node",
    "id": 11182998168,
    "lat": 56.7896364,
    "lon": 60.5002833,
    "tags": {
      "addr:city": "Екатеринбург",
      "addr:housenumber": "46/5",
      "addr:postcode": "620105",
      "addr:street": "улица Академика Парина",
      "amenity": "school",
      "name": "KIBERone",
      "phone": "+7 343 3288535",
      "website": "https://kiber-one.com"
    }
  },
  {
    "type": "node",
    "id": 11183021075,
    "lat": 56.7922123,
    "lon": 60.6216937,
    "tags": {
      "addr:city": "Екатеринбург",
      "addr:housenumber": "12",
      "addr:postcode": "620089",
      "addr:street": "Родонитовая улица",
      "amenity": "school",
      "name": "KIBERone",
      "phone": "+7 343 3288535",
      "website": "https://kiber-one.com"
    }
  },
  {
    "type": "node",
    "id": 11183026943,
    "lat": 56.8171520,
    "lon": 60.6317044,
    "tags": {
      "addr:city": "Екатеринбург",
      "addr:housenumber": "23",
      "addr:postcode": "620100",
      "addr:street": "улица Ткачей",
      "amenity": "school",
      "name": "KIBERone",
      "phone": "+7 343 3288535",
      "website": "https://kiber-one.com"
    }
  },
  {
    "type": "node",
    "id": 11183028182,
    "lat": 56.8346325,
    "lon": 60.7917499,
    "tags": {
      "addr:city": "Екатеринбург",
      "addr:housenumber": "5",
      "addr:postcode": "620010",
      "addr:street": "улица Конструкторов",
      "amenity": "school",
      "name": "KIBERone",
      "phone": "+7 343 3288535",
      "website": "https://kiber-one.com"
    }
  },
  {
    "type": "node",
    "id": 11183035063,
    "lat": 56.7887207,
    "lon": 60.7754510,
    "tags": {
      "addr:city": "Екатеринбург",
      "addr:housenumber": "19",
      "addr:postcode": "620007",
      "addr:street": "Латвийская улица",
      "amenity": "school",
      "name": "KIBERone",
      "phone": "+7 343 3288535",
      "website": "https://kiber-one.com"
    }
  },
  {
    "type": "node",
    "id": 11183094387,
    "lat": 56.8893710,
    "lon": 60.6013488,
    "tags": {
      "addr:city": "Екатеринбург",
      "addr:housenumber": "12",
      "addr:postcode": "620012",
      "addr:street": "Кировградская улица",
      "amenity": "school",
      "name": "KIBERone",
      "phone": "+7 343 3288535",
      "website": "https://kiber-one.com"
    }
  },
  {
    "type": "node",
    "id": 11183101461,
    "lat": 56.8317956,
    "lon": 60.5895638,
    "tags": {
      "addr:city": "Екатеринбург",
      "addr:housenumber": "64",
      "addr:postcode": "620014",
      "addr:street": "улица Сакко и Ванцетти",
      "amenity": "school",
      "name": "KIBERone",
      "phone": "+7 343 3288535",
      "website": "https://kiber-one.com"
    }
  },
  {
    "type": "node",
    "id": 11183106206,
    "lat": 56.8368990,
    "lon": 60.6227130,
    "tags": {
      "addr:city": "Екатеринбург",
      "addr:housenumber": "71",
      "addr:postcode": "620075",
      "addr:street": "улица Малышева",
      "amenity": "school",
      "name": "KIBERone",
      "phone": "+7 343 3288535",
      "website": "https://kiber-one.com"
    }
  },
  {
    "type": "node",
    "id": 11183165884,
    "lat": 56.8265699,
    "lon": 60.5864841,
    "tags": {
      "addr:city": "Екатеринбург",
      "addr:housenumber": "77",
      "addr:postcode": "620014",
      "addr:street": "Московская улица",
      "amenity": "school",
      "name": "KIBERone",
      "phone": "+7 343 3288535",
      "website": "https://kiber-one.com"
    }
  },
  {
    "type": "node",
    "id": 11183200739,
    "lat": 56.8363976,
    "lon": 60.5656496,
    "tags": {
      "addr:city": "Екатеринбург",
      "addr:housenumber": "18",
      "addr:postcode": "620028",
      "addr:street": "улица Татищева",
      "amenity": "school",
      "name": "KIBERone",
      "phone": "+7 343 3288535",
      "website": "https://kiber-one.com"
    }
  },
  {
    "type": "node",
    "id": 11279467464,
    "lat": 56.8154440,
    "lon": 60.6333290,
    "tags": {
      "amenity": "school",
      "entrance": "yes",
      "name": "Корифей"
    }
  },
  {
    "type": "node",
    "id": 11279467565,
    "lat": 56.8148173,
    "lon": 60.6338763,
    "tags": {
      "amenity": "school",
      "entrance": "yes",
      "name": "Многоточие"
    }
  },
  {
    "type": "node",
    "id": 11279467567,
    "lat": 56.8147773,
    "lon": 60.6343482,
    "tags": {
      "amenity": "school",
      "entrance": "yes",
      "name": "Многоточие"
    }
  },
  {
    "type": "way",
    "id": 35018358,
    "center": {
      "lat": 56.8381698,
      "lon": 60.6871093
    },
    "nodes": [
      815130801,
      815130770,
      815130432,
      815130864,
      410747051,
      815130351,
      1107181082,
      2987409048,
      410747052,
      667793711,
      815130530,
      410747053,
      815130495,
      410747050,
      815130801
    ],
    "tags": {
      "amenity": "school",
      "barrier": "fence",
      "grades": "1-11",
      "name": "Гимназия № 176",
      "phone": "+7 343 347-27-97",
      "website": "гимназия176.екатеринбург.рф"
    }
  },
  {
    "type": "way",
    "id": 35212036,
    "center": {
      "lat": 56.9018698,
      "lon": 60.5846754
    },
    "nodes": [
      412886453,
      1709521175,
      1709521174,
      412886455,
      412886457,
      412886459,
      412886464,
      412886468,
      412886473,
      412886478,
      412886453
    ],
    "tags": {
      "addr:housenumber": "50",
      "addr:street": "улица Бакинских Комиссаров",
      "amenity": "school",
      "building": "school",
      "building:levels": "3",
      "name": "Школа №113"
    }
  },
  {
    "type": "way",
    "id": 35212107,
    "center": {
      "lat": 56.8974939,
      "lon": 60.5994845
    },
    "nodes": [
      412887216,
      412887221,
      412887227,
      412887232,
      412887216
    ],
    "tags": {
      "addr:city": "Екатеринбург",
      "addr:housenumber": "37А",
      "addr:street": "улица Победы",
      "amenity": "school",
      "building": "school",
      "name": "Гимназия №205 Театр"
    }
  },
  {
    "type": "way",
    "id": 35399736,
    "center": {
      "lat": 56.7951037,
      "lon": 60.5851341
    },
    "nodes": [
      415284285,
      1261848189,
      2884847115,
      5091590381,
      415284279,
      4063573085,
      1261848090,
      415284287,
      415284288,
      1261848029,
      1261848048,
      415284290,
      536306742,
      5415683762,
      415284291,
      415284292,
      415284285
    ],
    "tags": {
      "amenity": "school",
      "barrier": "fence",
      "name": "Гимназия № 161"
    }
  },
  {
    "type": "way",
    "id": 35399737,
    "center": {
      "lat": 56.7939767,
      "lon": 60.5830429
    },
    "nodes": [
      415284293,
      1261848112,
      415284294,
      415284295,
      415284296,
      415284297,
      2275084080,
      415284293
    ],
    "tags": {
      "addr:city": "Екатеринбург",
      "addr:housenumber": "8",
      "addr:street": "улица Академика Постовского",
      "amenity": "school",
      "barrier": "fence",
      "name": "Школа № 65"
    }
  },
  {
    "type": "way",
    "id": 35399818,
    "center": {
      "lat": 56.7953615,
      "lon": 60.5911210
    },
    "nodes": [
      415284765,
      415284766,
      415284767,
      415284768,
      415284769,
      415284770,
      1261848108,
      415284771,
      415284772,
      415284773,
      415284765
    ],
    "tags": {
      "amenity": "school",
      "barrier": "fence",
      "name": "Школа №154"
    }
  },
  {
    "type": "way",
    "id": 35400178,
    "center": {
      "lat": 56.8025092,
      "lon": 60.5584315
    },
    "nodes": [
      415286602,
      415286603,
      415286601,
      415286604,
      415286605,
      415286606,
      2269679160,
      415286607,
      415286602
    ],
    "tags": {
      "amenity": "school",
      "barrier": "fence",
      "name": "Школа № 64",
      "ref": "64"
    }
  },
  {
    "type": "way",
    "id": 35678203,
    "center": {
      "lat": 56.8056861,
      "lon": 60.5476290
    },
    "nodes": [
      417751281,
      4310654418,
      5019324313,
      506663191,
      417751283,
      5019324299,
      5019324292,
      5019324298,
      5019324291,
      5019324297,
      5019324296,
      517548904,
      417751284,
      517548869,
      517713039,
      417751281
    ],
    "tags": {
      "amenity": "school",
      "barrier": "fence",
      "name": "Школа № 85",
      "ref": "85"
    }
  },
  {
    "type": "way",
    "id": 35840207,
    "center": {
      "lat": 56.8853517,
      "lon": 60.5806707
    },
    "nodes": [
      419029212,
      419029213,
      419029210,
      419029211,
      419029212
    ],
    "tags": {
      "addr:country": "RU",
      "addr:housenumber": "8",
      "addr:street": "улица Машиностроителей",
      "amenity": "school",
      "building": "school",
      "building:levels": "2",
      "name": "Школа №192"
    }
  },
  {
    "type": "way",
    "id": 35840270,
    "center": {
      "lat": 56.8891904,
      "lon": 60.5776343
    },
    "nodes": [
      419028931,
      419028930,
      419028937,
      419028936,
      419028931
    ],
    "tags": {
      "addr:housenumber": "25",
      "addr:street": "Фестивальная улица",
      "amenity": "school",
      "building": "school",
      "building:levels": "4",
      "name": "Школа №115"
    }
  },
  {
    "type": "way",
    "id": 35872125,
    "center": {
      "lat": 56.8900795,
      "lon": 60.6270900
    },
    "nodes": [
      419262856,
      1502599182,
      419262857,
      1502599183,
      419262858,
      419262859,
      875117474,
      875117433,
      419262860,
      419262861,
      419262862,
      419262863,
      419262864,
      419262865,
      419262866,
      419262867,
      419262868,
      419262869,
      419262856
    ],
    "tags": {
      "addr:housenumber": "20",
      "addr:street": "улица Стачек",
      "amenity": "school",
      "building": "school",
      "building:levels": "3",
      "name": "Школа №67",
      "name:en": "School №67",
      "start_date": "1938"
    }
  },
  {
    "type": "way",
    "id": 35940483,
    "center": {
      "lat": 56.8309639,
      "lon": 60.5587013
    },
    "nodes": [
      420171220,
      3693098528,
      3693098526,
      3693098527,
      3693098529,
      420171221,
      420171222,
      420171223,
      420171224,
      420171225,
      420171226,
      420171227,
      420171228,
      420171229,
      420171230,
      420171231,
      420171220
    ],
    "tags": {
      "addr:city": "Екатеринбург",
      "addr:housenumber": "46",
      "addr:postcode": "620109",
      "addr:street": "улица Крауля",
      "amenity": "school",
      "building": "school",
      "building:colour": "#FAFF75",
      "building:levels": "4",
      "name": "Школа №74",
      "name:ru": "Школа №74"
    }
  },
  {
    "type": "way",
    "id": 37286469,
    "center": {
      "lat": 56.8683618,
      "lon": 60.6543549
    },
    "nodes": [
      476855020,
      434454129,
      434454130,
      434454128,
      434454127,
      476855025,
      476855034,
      4810811252,
      4810811270,
      434454126,
      434454123,
      434454124,
      434454125,
      476855031,
      476855039,
      476855044,
      476855048,
      476855054,
      476855058,
      476855059,
      476855064,
      434454134,
      434454135,
      434454136,
      434454137,
      434454138,
      434454131,
      1144159289,
      1144159293,
      434454132,
      434454133,
      476855061,
      476855046,
      476855041,
      476855037,
      476855020
    ],
    "tags": {
      "addr:housenumber": "30",
      "addr:street": "улица Данилы Зверева",
      "amenity": "school",
      "building": "yes",
      "layer": "0",
      "name": "СУНЦ УрФУ",
      "official_name": "СУНЦ УрФУ",
      "website": "https://lyceum.urfu.ru/"
    }
  },
  {
    "type": "way",
    "id": 38114056,
    "center": {
      "lat": 56.8904747,
      "lon": 60.6349654
    },
    "nodes": [
      448415457,
      448415460,
      448415461,
      448415462,
      448415463,
      448415464,
      448415466,
      448415467,
      448415468,
      448415469,
      448415457
    ],
    "tags": {
      "addr:housenumber": "28А",
      "addr:street": "улица Краснофлотцев",
      "amenity": "school",
      "building": "school",
      "building:levels": "2",
      "name": "Школа №107",
      "start_date": "1950"
    }
  },
  {
    "type": "way",
    "id": 39845269,
    "center": {
      "lat": 56.8539290,
      "lon": 60.6287233
    },
    "nodes": [
      477702466,
      477702475,
      477702483,
      477702495,
      477702502,
      662755667,
      477702510,
      662755668,
      477702466
    ],
    "tags": {
      "amenity": "school",
      "barrier": "fence",
      "name": "Школа № 145"
    }
  },
  {
    "type": "way",
    "id": 39856930,
    "center": {
      "lat": 56.8410517,
      "lon": 60.6411430
    },
    "nodes": [
      475950157,
      475950162,
      1482073937,
      1482073936,
      475950176,
      11497519421,
      475950178,
      2526640606,
      477888988,
      1631261275,
      477521826,
      477521839,
      1834192311,
      2419996771,
      1834192331,
      7498502498,
      7498502499,
      7498502497,
      477521829,
      7498502495,
      1928649776,
      11497519418,
      7498502494,
      477521830,
      475950157
    ],
    "tags": {
      "amenity": "school",
      "name": "Лицей № 88",
      "website": "http://www.liceum88.ru/"
    }
  },
  {
    "type": "way",
    "id": 40665370,
    "center": {
      "lat": 56.8378928,
      "lon": 60.6261304
    },
    "nodes": [
      493908961,
      708319466,
      493908962,
      708319506,
      1536233354,
      708319479,
      493908963,
      1536233347,
      708319507,
      708319508,
      1536233343,
      4271122903,
      493908964,
      493908961
    ],
    "tags": {
      "amenity": "school",
      "barrier": "fence",
      "name": "Лицей № 110 им. Л. К. Гришиной"
    }
  },
  {
    "type": "way",
    "id": 40694440,
    "center": {
      "lat": 56.8570946,
      "lon": 60.6237728
    },
    "nodes": [
      494252984,
      494252987,
      5955202343,
      5955202344,
      5955202345,
      5955202346,
      494252988,
      494252986,
      494252984
    ],
    "tags": {
      "addr:city": "Екатеринбург",
      "addr:country": "RU",
      "addr:housenumber": "3А",
      "addr:street": "улица Пионеров",
      "amenity": "school",
      "building": "yes",
      "name": "ЧОУ СОШ «Творчество»",
      "website": "http://happyschool.ru"
    }
  },
  {
    "type": "way",
    "id": 40694446,
    "center": {
      "lat": 56.8586951,
      "lon": 60.6239452
    },
    "nodes": [
      494253010,
      494253011,
      702490794,
      5614762246,
      494253012,
      1652196023,
      1652196021,
      494253013,
      494253010
    ],
    "tags": {
      "amenity": "school",
      "barrier": "fence",
      "name": "Школа № 146"
    }
  },
  {
    "type": "way",
    "id": 40801561,
    "center": {
      "lat": 56.8908538,
      "lon": 60.5873143
    },
    "nodes": [
      496100789,
      496100791,
      496100792,
      496100793,
      496100794,
      496100796,
      496101020,
      496100789
    ],
    "tags": {
      "amenity": "school",
      "barrier": "fence",
      "name": "Гимназия № 144",
      "ref": "144"
    }
  },
  {
    "type": "way",
    "id": 40801655,
    "center": {
      "lat": 56.8902401,
      "lon": 60.5886942
    },
    "nodes": [
      496100791,
      496101161,
      1512547682,
      496101218,
      496101164,
      1167002013,
      1167002208,
      1132772999,
      446063339,
      446063340,
      1512547685,
      1167002231,
      496100794,
      496100793,
      496100792,
      496100791
    ],
    "tags": {
      "amenity": "school",
      "name": "Школа № 22",
      "ref": "22"
    }
  },
  {
    "type": "way",
    "id": 41229884,
    "center": {
      "lat": 56.8929688,
      "lon": 60.5932345
    },
    "nodes": [
      503816367,
      503816463,
      503816369,
      503816372,
      503816374,
      503816367
    ],
    "tags": {
      "amenity": "school",
      "barrier": "fence",
      "name": "Школа № 68",
      "ref": "68"
    }
  },
  {
    "type": "way",
    "id": 41229889,
    "center": {
      "lat": 56.8963854,
      "lon": 60.5920268
    },
    "nodes": [
      503816598,
      11219497165,
      503816650,
      11219497169,
      503816599,
      11219497162,
      11219543760,
      3213231014,
      3213231016,
      412887460,
      3213231017,
      503816600,
      503816601,
      503816598
    ],
    "tags": {
      "amenity": "school",
      "barrier": "fence",
      "name": "Школа №72"
    }
  },
  {
    "type": "way",
    "id": 41229895,
    "center": {
      "lat": 56.8933586,
      "lon": 60.5998620
    },
    "nodes": [
      2621718242,
      503816819,
      2621718243,
      503816822,
      503816824,
      503816826,
      503816827,
      503816828,
      503816830,
      503816835,
      503817090,
      503817091,
      503816815,
      503816817,
      2621718242
    ],
    "tags": {
      "amenity": "school",
      "barrier": "fence",
      "fence:material": "steel",
      "fence_type": "grate",
      "height": "1.5",
      "landuse": "construction",
      "name": "Школа № 80",
      "ref": "80"
    }
  },
  {
    "type": "way",
    "id": 41812581,
    "center": {
      "lat": 56.9054913,
      "lon": 60.6083943
    },
    "nodes": [
      516183986,
      516183994,
      1516751828,
      1516751878,
      1516751940,
      516183998,
      813129727,
      929158614,
      516184003,
      516185203,
      516184008,
      516184012,
      516183986
    ],
    "tags": {
      "addr:postcode": "620042",
      "amenity": "school",
      "barrier": "fence",
      "email": "licey128@eduekb.ru",
      "name": "Лицей №128",
      "name:en": "Lyceum №128",
      "opening_hours": "Mo-Fr 07:30-19:30; Sa 07:30-16:00",
      "phone": "+7 343 3304144",
      "website": "http://лицей128.екатеринбург.рф"
    }
  },
  {
    "type": "way",
    "id": 41814150,
    "center": {
      "lat": 56.9026276,
      "lon": 60.6064528
    },
    "nodes": [
      516226523,
      4676926596,
      4676926597,
      928898309,
      516226533,
      1519294590,
      516226536,
      1516751180,
      516226539,
      929158612,
      929158634,
      516226548,
      516226523
    ],
    "tags": {
      "amenity": "school",
      "barrier": "fence",
      "name": "Школа-интернат №18"
    }
  },
  {
    "type": "way",
    "id": 43224761,
    "center": {
      "lat": 56.9060294,
      "lon": 60.5998546
    },
    "nodes": [
      542062100,
      1515825928,
      542062124,
      1537847502,
      1515825764,
      1515825773,
      1515825714,
      1515825696,
      1515825699,
      542062136,
      1515825712,
      542062153,
      1515825873,
      1515825912,
      542062100
    ],
    "tags": {
      "amenity": "school",
      "barrier": "fence",
      "name": "Школа №178",
      "official_name": "МАОУ СОШ № 178"
    }
  },
  {
    "type": "way",
    "id": 43224764,
    "center": {
      "lat": 56.8969159,
      "lon": 60.6093803
    },
    "nodes": [
      542062385,
      9856047196,
      1793622991,
      9811035256,
      542062398,
      1836837403,
      9834009436,
      9834009443,
      542062410,
      9834009442,
      9834009429,
      1793622724,
      1793622683,
      1793622729,
      1836837371,
      9836234020,
      1793622705,
      9811188864,
      9811148941,
      9811846460,
      542062418,
      9836234017,
      9810763696,
      9811591592,
      9811591591,
      11186586087,
      9810763699,
      1793623067,
      9856047194,
      542062385
    ],
    "tags": {
      "addr:housenumber": "48А",
      "addr:postcode": "620012",
      "addr:street": "улица Ильича",
      "amenity": "school",
      "barrier": "fence",
      "contact:vk": "prostopro100.licey100",
      "email": "licey100@eduekb.ru",
      "fence_type": "grate",
      "height": "1.8",
      "name": "Лицей №100",
      "name:en": "Lyceum №100",
      "opening_hours": "Mo-Fr 07:00-19:00; Sa 07:00-17:30",
      "phone": "+7 (343) 320-62-60",
      "ref": "100",
      "website": "https://лицей100.екатеринбург.рф"
    }
  },
  {
    "type": "way",
    "id": 43224768,
    "center": {
      "lat": 56.9074482,
      "lon": 60.5959283
    },
    "nodes": [
      542063032,
      1537847574,
      1528638946,
      542063042,
      3975453240,
      1537847517,
      542063062,
      1537847549,
      1520063400,
      542063032
    ],
    "tags": {
      "amenity": "school",
      "barrier": "fence",
      "name": "Школа № 27"
    }
  },
  {
    "type": "way",
    "id": 44775956,
    "center": {
      "lat": 56.8509366,
      "lon": 60.6605847
    },
    "nodes": [
      567844048,
      567844049,
      2904525614,
      567844054,
      567844055,
      1650163282,
      567844056,
      1645445220,
      567844057,
      567844050,
      1645445219,
      567844051,
      567844048
    ],
    "tags": {
      "addr:city": "Екатеринбург",
      "addr:country": "RU",
      "addr:housenumber": "26",
      "addr:postcode": "620049",
      "addr:street": "Студенческая улица",
      "alt_name": "Средняя школа",
      "amenity": "school",
      "building": "school",
      "building:levels": "4"
    }
  },
  {
    "type": "way",
    "id": 45035746,
    "center": {
      "lat": 56.8171997,
      "lon": 60.5734098
    },
    "nodes": [
      1865412451,
      1865412436,
      9641300832,
      8377947651,
      8377947746,
      8377947745,
      1865412457,
      8377947652,
      1865412458,
      2471579959,
      571326746,
      2125862277,
      1865412451
    ],
    "tags": {
      "amenity": "school",
      "barrier": "fence",
      "fence_type": "metal",
      "height": "3",
      "name": "Школа № 184 «Новая Школа»",
      "official_name": "СОШ №184 \"Новая Школа\""
    }
  },
  {
    "type": "way",
    "id": 46040892,
    "center": {
      "lat": 56.8045408,
      "lon": 60.6342451
    },
    "nodes": [
      3289328183,
      4096634921,
      4096634933,
      4096634931,
      4096634932,
      760468068,
      760468066,
      7081739406,
      462432166,
      6314592780,
      586881821,
      1400598385,
      7081739407,
      590302097,
      590302057,
      3289328184,
      3289328193,
      3289328201,
      3289328183
    ],
    "tags": {
      "amenity": "school",
      "name": "Школа №28"
    }
  },
  {
    "type": "way",
    "id": 47027037,
    "center": {
      "lat": 56.7827312,
      "lon": 60.5441920
    },
    "nodes": [
      2061302765,
      2432681707,
      2282736509,
      599906038,
      2431823407,
      599906039,
      599905980,
      599906040,
      2970024816,
      599906041,
      599906042,
      2061302765
    ],
    "tags": {
      "amenity": "school",
      "barrier": "fence",
      "name": "Школа № 181"
    }
  },
  {
    "type": "way",
    "id": 47027151,
    "center": {
      "lat": 56.8070465,
      "lon": 60.6260570
    },
    "nodes": [
      599906834,
      599906836,
      599906837,
      599906838,
      839678368,
      839678363,
      599906841,
      11271365514,
      839678333,
      599906842,
      3152075179,
      599906844,
      599906834
    ],
    "tags": {
      "amenity": "school",
      "barrier": "fence",
      "name": "Интернат глухонемых"
    }
  },
  {
    "type": "way",
    "id": 47046794,
    "center": {
      "lat": 56.8885485,
      "lon": 60.6064003
    },
    "nodes": [
      600077881,
      600077882,
      11454830254,
      11454830255,
      6762158207,
      11454830253,
      600077883,
      3270361568,
      600077884,
      3301948149,
      600077881
    ],
    "tags": {
      "amenity": "school",
      "name": "Школа № 77",
      "official_name": "МОУ СОШ №77 имени героя СССР Хомякова Владилена Павловича"
    }
  },
  {
    "type": "way",
    "id": 47584243,
    "center": {
      "lat": 56.8217359,
      "lon": 60.6321229
    },
    "nodes": [
      605416044,
      605416047,
      605416050,
      605416052,
      605416055,
      605416060,
      605416061,
      605416044
    ],
    "tags": {
      "amenity": "school",
      "barrier": "fence",
      "name": "Школа № 62"
    }
  },
  {
    "type": "way",
    "id": 47584610,
    "center": {
      "lat": 56.8327529,
      "lon": 60.6275845
    },
    "nodes": [
      605434886,
      6708260343,
      605434889,
      605434892,
      741185699,
      741185702,
      741185704,
      741185705,
      605434894,
      611049611,
      605434886
    ],
    "tags": {
      "amenity": "school",
      "barrier": "fence",
      "name": "Школа № 13"
    }
  },
  {
    "type": "way",
    "id": 47601770,
    "center": {
      "lat": 56.7906432,
      "lon": 60.6148052
    },
    "nodes": [
      605781281,
      3574683895,
      3574683894,
      605781285,
      1348942950,
      605781290,
      605781297,
      605781304,
      1348942865,
      605781310,
      605781328,
      605781332,
      605781338,
      605781345,
      7599613915,
      1487547127,
      605781348,
      605781354,
      7599613914,
      605781281
    ],
    "tags": {
      "amenity": "school",
      "barrier": "fence",
      "name": "Школа № 32"
    }
  },
  {
    "type": "way",
    "id": 48066305,
    "center": {
      "lat": 56.8355346,
      "lon": 60.6296424
    },
    "nodes": [
      611049609,
      611049610,
      1273358885,
      611049608,
      761915150,
      540776269,
      10988323862,
      703636783,
      703636738,
      703636785,
      10988323858,
      1399441222,
      1399441226,
      1399441229,
      1013790108,
      1013790111,
      1013790113,
      611049609
    ],
    "tags": {
      "amenity": "school",
      "name": "Гимназия № 94"
    }
  },
  {
    "type": "way",
    "id": 48239229,
    "center": {
      "lat": 56.8508561,
      "lon": 60.6598053
    },
    "nodes": [
      613054777,
      613054761,
      613054780,
      613054775,
      613054777
    ],
    "tags": {
      "amenity": "school",
      "barrier": "fence",
      "name": "Лицей № 130",
      "wikidata": "Q4264330",
      "wikipedia": "ru:Лицей № 130 (Екатеринбург)"
    }
  },
  {
    "type": "way",
    "id": 48846254,
    "center": {
      "lat": 56.7597723,
      "lon": 60.8164418
    },
    "nodes": [
      619719437,
      619719438,
      631618901,
      619719439,
      619719440,
      619719441,
      631508115,
      619719442,
      619719443,
      625113246,
      619719444,
      619719445,
      633151234,
      619719437
    ],
    "tags": {
      "amenity": "school",
      "barrier": "fence",
      "name": "Школа №92",
      "ref": "92"
    }
  },
  {
    "type": "way",
    "id": 49477733,
    "center": {
      "lat": 56.8113068,
      "lon": 60.5958708
    },
    "nodes": [
      761892199,
      761892198,
      1014889806,
      628589367,
      628589368,
      628589369,
      1013584266,
      628589370,
      761892199
    ],
    "tags": {
      "amenity": "school",
      "name": "Гимназия № 70"
    }
  },
  {
    "type": "way",
    "id": 52787761,
    "center": {
      "lat": 56.8328195,
      "lon": 60.5494717
    },
    "nodes": [
      669758861,
      712328168,
      3983722209,
      1188812089,
      712328117,
      669758858,
      669758861
    ],
    "tags": {
      "amenity": "school",
      "barrier": "fence",
      "name": "Школа № 163",
      "ref": "163"
    }
  },
  {
    "type": "way",
    "id": 54354519,
    "center": {
      "lat": 56.8269533,
      "lon": 60.6355083
    },
    "nodes": [
      681205547,
      10711711403,
      11343828071,
      681205548,
      11343828069,
      11343828070,
      11343787068,
      6537044246,
      681205545,
      681168111,
      681205558,
      681205560,
      681168109,
      681205547
    ],
    "tags": {
      "amenity": "school",
      "grades": "1-11",
      "name": "Гимназия № 40"
    }
  },
  {
    "type": "way",
    "id": 55225923,
    "center": {
      "lat": 56.9034812,
      "lon": 60.5956345
    },
    "nodes": [
      694198537,
      694198538,
      694198539,
      1599075124,
      1599075134,
      1599075198,
      694198540,
      694198537
    ],
    "tags": {
      "amenity": "school",
      "barrier": "fence",
      "name": "Школа №81"
    }
  },
  {
    "type": "way",
    "id": 55455625,
    "center": {
      "lat": 56.8281266,
      "lon": 60.6453889
    },
    "nodes": [
      696954692,
      4333444830,
      4333444831,
      696954703,
      4333444833,
      4333444832,
      4333444828,
      4333444829,
      696954691,
      4333444825,
      4333444826,
      696954693,
      696954692
    ],
    "tags": {
      "addr:city": "Екатеринбург",
      "addr:country": "RU",
      "addr:housenumber": "2А",
      "addr:postcode": "620100",
      "addr:street": "Шорный переулок",
      "amenity": "school",
      "building": "school",
      "building:levels": "2"
    }
  },
  {
    "type": "way",
    "id": 55455665,
    "center": {
      "lat": 56.8245108,
      "lon": 60.6592621
    },
    "nodes": [
      696955022,
      696955013,
      696955019,
      696955021,
      696955014,
      696955015,
      696955023,
      696955022
    ],
    "tags": {
      "addr:housenumber": "183",
      "addr:street": "улица Куйбышева",
      "amenity": "school",
      "building": "school",
      "building:levels": "3"
    }
  },
  {
    "type": "way",
    "id": 55881092,
    "center": {
      "lat": 56.8305385,
      "lon": 60.6231247
    },
    "nodes": [
      701682419,
      760178713,
      1768478901,
      1768478900,
      1768478903,
      1768478906,
      701682420,
      1768478907,
      1768478908,
      1768478909,
      701682421,
      6533250005,
      701682422,
      701682423,
      1768478910,
      701682419
    ],
    "tags": {
      "amenity": "school",
      "barrier": "fence",
      "check_date": "2023-01-06",
      "name": "Школа № 76",
      "ref": "76"
    }
  },
  {
    "type": "way",
    "id": 55967161,
    "center": {
      "lat": 56.8585920,
      "lon": 60.6268998
    },
    "nodes": [
      702490783,
      702490784,
      702490785,
      702490786,
      6034844972,
      702490783
    ],
    "tags": {
      "amenity": "school",
      "barrier": "fence",
      "name": "Школа № 123",
      "website": "http://123school.ru"
    }
  },
  {
    "type": "way",
    "id": 56121563,
    "center": {
      "lat": 56.8333700,
      "lon": 60.6242654
    },
    "nodes": [
      741174093,
      624497796,
      624497798,
      741174119,
      704275955,
      704275957,
      704275958,
      704275959,
      5305408273,
      704275960,
      741174604,
      741174606,
      741174607,
      741174610,
      4957224795,
      741174326,
      741174236,
      741174239,
      741174110,
      651262772,
      651262773,
      741174093
    ],
    "tags": {
      "amenity": "school",
      "name": "Гимназия № 8 им. Дягилева"
    }
  },
  {
    "type": "way",
    "id": 56671111,
    "center": {
      "lat": 56.7476328,
      "lon": 60.7063082
    },
    "nodes": [
      1500181945,
      708687734,
      708687961,
      708687811,
      1500181674,
      1500181660,
      1500181756,
      708687724,
      708687889,
      708687864,
      708684034,
      1500181945
    ],
    "tags": {
      "addr:housenumber": "15",
      "addr:street": "Водная улица",
      "amenity": "school",
      "building": "yes",
      "building:levels": "1",
      "name": "ДЮСШ Кристалл"
    }
  },
  {
    "type": "way",
    "id": 56690172,
    "center": {
      "lat": 56.8455426,
      "lon": 60.6559430
    },
    "nodes": [
      933360149,
      933360168,
      925240537,
      709009540,
      933360159,
      933360149
    ],
    "tags": {
      "amenity": "school",
      "barrier": "fence",
      "name": "Спец.школа № 123"
    }
  },
  {
    "type": "way",
    "id": 58620337,
    "center": {
      "lat": 56.7834017,
      "lon": 60.5896501
    },
    "nodes": [
      726467858,
      1103043520,
      1103043527,
      726467861,
      1099546862,
      726467863,
      726467866,
      726467869,
      726467871,
      1103043526,
      726467858
    ],
    "tags": {
      "amenity": "school",
      "name": "Школа № 84"
    }
  },
  {
    "type": "way",
    "id": 60622853,
    "center": {
      "lat": 56.8381233,
      "lon": 60.5867878
    },
    "nodes": [
      758587270,
      776534830,
      6761219305,
      6761219298,
      6761219302,
      758587276,
      6761219306,
      6761219292,
      6761219294,
      6761219309,
      758587280,
      454767314,
      6761219315,
      6761219316,
      6761219317,
      6761219318,
      454767311,
      758587283,
      758587301,
      758587270
    ],
    "tags": {
      "amenity": "school",
      "name": "Школа № 69",
      "ref": "69"
    }
  },
  {
    "type": "way",
    "id": 60728118,
    "center": {
      "lat": 56.8267532,
      "lon": 60.6715971
    },
    "nodes": [
      760225622,
      3061235844,
      760225624,
      3061235834,
      3061411340,
      760225625,
      3061568454,
      760225626,
      3061568462,
      3061568468,
      3061568458,
      760225622
    ],
    "tags": {
      "amenity": "school",
      "barrier": "fence",
      "fence_type": "chain_link",
      "height": "1.5",
      "name": "Средняя школа №96"
    }
  },
  {
    "type": "way",
    "id": 60786692,
    "center": {
      "lat": 56.8280488,
      "lon": 60.6666938
    },
    "nodes": [
      760853866,
      3061411334,
      3061411336,
      3061411342,
      760853862,
      760853863,
      760853864,
      760853865,
      3061402731,
      760853866
    ],
    "tags": {
      "amenity": "school",
      "barrier": "fence",
      "fence_type": "metal",
      "name": "Гимназия № 210 «Корифей»"
    }
  },
  {
    "type": "way",
    "id": 60863709,
    "center": {
      "lat": 56.8101925,
      "lon": 60.5961640
    },
    "nodes": [
      628589373,
      1014889714,
      1279462237,
      628589375,
      1014889860,
      1014889829,
      761892198,
      761892199,
      1014889674,
      628589373
    ],
    "tags": {
      "amenity": "school",
      "name": "Школа № 175"
    }
  },
  {
    "type": "way",
    "id": 60911891,
    "center": {
      "lat": 56.8377591,
      "lon": 60.6739532
    },
    "nodes": [
      762461481,
      762461478,
      769112294,
      769116437,
      762461475,
      769116444,
      769112293,
      769116442,
      762461472,
      769112271,
      762461482,
      769112263,
      762461481
    ],
    "tags": {
      "amenity": "school",
      "barrier": "fence",
      "grades": "1-11",
      "name": "Гимназия № 45",
      "phone": "+7 343 347-66-47",
      "website": "гимназия45.екатеринбург.рф"
    }
  },
  {
    "type": "way",
    "id": 61026098,
    "center": {
      "lat": 56.8348080,
      "lon": 60.6749097
    },
    "nodes": [
      763951973,
      813415507,
      3120744854,
      3120744853,
      763952158,
      763952065,
      1349421639,
      813415312,
      813415600,
      763952199,
      1003826849,
      763952409,
      813415674,
      763951973
    ],
    "tags": {
      "amenity": "school",
      "barrier": "fence",
      "grades": "1-11",
      "name": "Школа № 157",
      "phone": "+7 343 347-65-93",
      "website": "школа157.екатеринбург.рф"
    }
  },
  {
    "type": "way",
    "id": 61026122,
    "center": {
      "lat": 56.8294986,
      "lon": 60.6890552
    },
    "nodes": [
      763952319,
      763951980,
      763952212,
      787660972,
      1837402710,
      1837402712,
      2956752526,
      763952386,
      763952300,
      3994901728,
      763951891,
      787661068,
      763952030,
      787660984,
      787660990,
      787661031,
      787661013,
      763952319
    ],
    "tags": {
      "amenity": "school",
      "barrier": "fence",
      "grades": "5-11",
      "name": "Школа № 151",
      "phone": "+7 343 347-75-10",
      "website": "школа151.екатеринбург.рф"
    }
  },
  {
    "type": "way",
    "id": 61026129,
    "center": {
      "lat": 56.8281553,
      "lon": 60.6890109
    },
    "nodes": [
      763952319,
      787661013,
      787661031,
      787660990,
      787660984,
      763952030,
      787661079,
      773132023,
      11341854287,
      763952173,
      763952390,
      773132002,
      763952306,
      773132026,
      787660967,
      763952319
    ],
    "tags": {
      "amenity": "school",
      "barrier": "fence",
      "grades": "1-4",
      "name": "Школа № 151 (начальное отделение)"
    }
  },
  {
    "type": "way",
    "id": 61026131,
    "center": {
      "lat": 56.8321186,
      "lon": 60.6794667
    },
    "nodes": [
      763951921,
      2446088192,
      763952411,
      763952328,
      763952429,
      3091954624,
      3091954631,
      813415538,
      2928806352,
      763952108,
      763951988,
      763951921
    ],
    "tags": {
      "amenity": "school",
      "barrier": "fence",
      "grades": "1-11",
      "name": "Школа № 164",
      "phone": "+7 343 347-45-00",
      "website": "школа164.екатеринбург.рф"
    }
  },
  {
    "type": "way",
    "id": 61154862,
    "center": {
      "lat": 56.7893643,
      "lon": 60.6217417
    },
    "nodes": [
      764853802,
      764853803,
      764853805,
      429414707,
      429414705,
      1188750562,
      764853807,
      1188750642,
      764853808,
      764853802
    ],
    "tags": {
      "amenity": "school",
      "barrier": "fence",
      "name": "МОУ СОШ № 200"
    }
  },
  {
    "type": "way",
    "id": 61154867,
    "center": {
      "lat": 56.7891251,
      "lon": 60.6259259
    },
    "nodes": [
      764853839,
      764853840,
      764853841,
      764853843,
      764853835,
      7597748192,
      7598393925,
      764853844,
      7609286540,
      764853845,
      764853846,
      764853847,
      764853848,
      764853850,
      764853851,
      7650478561,
      764853839
    ],
    "tags": {
      "amenity": "school",
      "barrier": "fence",
      "name": "Лицей № 180"
    }
  },
  {
    "type": "way",
    "id": 61778058,
    "center": {
      "lat": 56.8481604,
      "lon": 60.6071352
    },
    "nodes": [
      9763334621,
      9763334620,
      9764234666,
      3142486130,
      769828145,
      1667982560,
      9763334623,
      2303335358,
      1667982564,
      769828148,
      769828150,
      769828152,
      1667982304,
      1667982307,
      9787284669,
      3987414405,
      9764234665,
      3142478749,
      9763334621
    ],
    "tags": {
      "amenity": "school",
      "name": "Гимназия № 104"
    }
  },
  {
    "type": "way",
    "id": 62228491,
    "center": {
      "lat": 56.8386130,
      "lon": 60.6002419
    },
    "nodes": [
      776691939,
      453996096,
      453996093,
      6917359846,
      6917359845,
      3942824087,
      6917359844,
      6917359843,
      1241659563,
      453996110,
      453996112,
      776691958,
      776691909,
      776691939
    ],
    "tags": {
      "amenity": "school",
      "name": "Гимназия № 9",
      "name:en": "Ekaterinburg Gymnasium",
      "opening_hours": "Mo-Fr 08:00-20:00; Sa 08:00-18:00",
      "operator": "Муниципальное автономное общеобразовательное учреждение \"Гимназия № 9\"",
      "website": "http://гимназия9.екатеринбург.рф/",
      "wikidata": "Q15298893",
      "wikipedia": "ru:Гимназия № 9 (Екатеринбург)"
    }
  },
  {
    "type": "way",
    "id": 67485668,
    "center": {
      "lat": 56.9101888,
      "lon": 60.6111789
    },
    "nodes": [
      814657981,
      814657934,
      965900593,
      1752586125,
      1752586127,
      814657924,
      814657978,
      1752586003,
      965900619,
      1752586000,
      814657955,
      814657981
    ],
    "tags": {
      "amenity": "school",
      "barrier": "fence",
      "name": "Школа №95"
    }
  },
  {
    "type": "way",
    "id": 68562503,
    "center": {
      "lat": 56.8180116,
      "lon": 60.5156279
    },
    "nodes": [
      824355633,
      2285466377,
      2285466396,
      2285466404,
      1418918395,
      1418918396,
      824355636,
      824355659,
      824355662,
      824355665,
      824355668,
      824355672,
      492463566,
      2285466362,
      1418918366,
      1418918367,
      824355633
    ],
    "tags": {
      "amenity": "school",
      "name": "Детский приют «Каравелла»"
    }
  },
  {
    "type": "way",
    "id": 69205748,
    "center": {
      "lat": 56.7840762,
      "lon": 60.6642885
    },
    "nodes": [
      829799277,
      829799364,
      829799346,
      829799302,
      1191583959,
      1191583248,
      829799277
    ],
    "tags": {
      "addr:housenumber": "4",
      "addr:street": "улица Дарвина",
      "amenity": "school",
      "building": "yes"
    }
  },
  {
    "type": "way",
    "id": 69841227,
    "center": {
      "lat": 56.8299951,
      "lon": 60.5329320
    },
    "nodes": [
      618794657,
      835035941,
      2350454592,
      708077755,
      2350454606,
      618794640,
      618794636,
      618794631,
      618794637,
      618794657
    ],
    "tags": {
      "amenity": "school",
      "name": "Школа № 48"
    }
  },
  {
    "type": "way",
    "id": 69841235,
    "center": {
      "lat": 56.8298183,
      "lon": 60.5356502
    },
    "nodes": [
      835035941,
      618794657,
      618794645,
      618794647,
      8523292739,
      618794648,
      2350454633,
      618794649,
      618794650,
      618794652,
      835035941
    ],
    "tags": {
      "amenity": "school",
      "name": "Школа № 171"
    }
  },
  {
    "type": "way",
    "id": 70368530,
    "center": {
      "lat": 56.8202183,
      "lon": 60.5616003
    },
    "nodes": [
      839685917,
      839685873,
      846805449,
      846805412,
      846805316,
      846805488,
      846805399,
      846805361,
      839685915,
      4702346557,
      4702346546,
      839685917
    ],
    "tags": {
      "amenity": "school",
      "barrier": "fence",
      "name": "Гимназия №116"
    }
  },
  {
    "type": "way",
    "id": 70831939,
    "center": {
      "lat": 56.8960909,
      "lon": 60.6029968
    },
    "nodes": [
      844607509,
      870793544,
      870793574,
      844607284,
      844607214,
      844607129,
      844607451,
      870793570,
      870793568,
      844607395,
      844607181,
      870793577,
      870793551,
      844607585,
      844607249,
      844607160,
      844607208,
      870793540,
      870793512,
      844607576,
      844607509
    ],
    "tags": {
      "addr:housenumber": "30А",
      "addr:street": "улица Уральских Рабочих",
      "amenity": "school",
      "building": "yes",
      "name": "Гимназия \"Арт-этюд\"",
      "name:en": "Gymnasium \"Art-etude\""
    }
  },
  {
    "type": "way",
    "id": 70831988,
    "center": {
      "lat": 56.8954861,
      "lon": 60.6023468
    },
    "nodes": [
      844607359,
      844607557,
      844607487,
      844607429,
      844607359
    ],
    "tags": {
      "addr:housenumber": "28А",
      "addr:street": "улица Уральских Рабочих",
      "amenity": "school",
      "building": "yes",
      "name": "Начальная школа \"Арт-этюд\"",
      "name:en": "Grade school \"Art-etude\""
    }
  },
  {
    "type": "way",
    "id": 70836530,
    "center": {
      "lat": 56.8908143,
      "lon": 60.6371110
    },
    "nodes": [
      844613331,
      844612359,
      844612536,
      844612900,
      844613331
    ],
    "tags": {
      "addr:housenumber": "37А",
      "addr:street": "улица Корепина",
      "amenity": "school",
      "building": "school",
      "building:levels": "2",
      "name": "Школа №107"
    }
  },
  {
    "type": "way",
    "id": 70983594,
    "center": {
      "lat": 56.8384601,
      "lon": 60.5831204
    },
    "nodes": [
      845864573,
      769070116,
      769070131,
      845864574,
      6297540118,
      6297540119,
      845864566,
      1831793524,
      6297540114,
      845864567,
      845864568,
      845864569,
      6279065486,
      6279064684,
      6279065485,
      6279064674,
      845864571,
      845864572,
      845864573
    ],
    "tags": {
      "amenity": "school",
      "name": "Гимназия № 2",
      "ref": "2"
    }
  },
  {
    "type": "way",
    "id": 71132889,
    "center": {
      "lat": 56.8159772,
      "lon": 60.5574167
    },
    "nodes": [
      847021083,
      847020915,
      847020797,
      847555483,
      854834164,
      847021047,
      847020726,
      847020627,
      10720145513,
      847020912,
      847020793,
      847555479,
      847021026,
      847021083
    ],
    "tags": {
      "amenity": "school",
      "barrier": "fence",
      "name": "Школа № 168",
      "ref": "168"
    }
  },
  {
    "type": "way",
    "id": 71918440,
    "center": {
      "lat": 56.8133141,
      "lon": 60.5614629
    },
    "nodes": [
      854834101,
      854834155,
      5648964567,
      854834037,
      854834128,
      854834143,
      854834084,
      854834104,
      854834060,
      5648964570,
      854834101
    ],
    "tags": {
      "amenity": "school",
      "barrier": "fence",
      "name": "Средняя школа № 57",
      "ref": "57"
    }
  },
  {
    "type": "way",
    "id": 73482245,
    "center": {
      "lat": 56.8961160,
      "lon": 60.6473560
    },
    "nodes": [
      870850186,
      870850451,
      870849987,
      870850324,
      870850547,
      870850087,
      870850256,
      870850394,
      870850186
    ],
    "tags": {
      "addr:city": "Екатеринбург",
      "addr:country": "RU",
      "addr:housenumber": "2Д",
      "addr:postcode": "620057",
      "addr:street": "Даниловская улица",
      "amenity": "school",
      "building": "school",
      "building:levels": "4",
      "name": "Школа-интернат №89"
    }
  },
  {
    "type": "way",
    "id": 73553585,
    "center": {
      "lat": 56.8386536,
      "lon": 60.6614113
    },
    "nodes": [
      2874118964,
      2919980940,
      2874118967,
      7775449276,
      871860605,
      871860568,
      2874118971,
      871860547,
      871860609,
      2874118960,
      2874118961,
      2874147645,
      2874118965,
      2874118964
    ],
    "tags": {
      "amenity": "school",
      "barrier": "fence",
      "note": "университет закрылся",
      "was:amenity": "university",
      "was:name": "Уральский гуманитарный институт",
      "wikidata": "Q4476758",
      "wikipedia": "ru:Уральский гуманитарный институт"
    }
  },
  {
    "type": "way",
    "id": 76537004,
    "center": {
      "lat": 56.8534079,
      "lon": 60.5681780
    },
    "nodes": [
      11672645408,
      902204548,
      902204497,
      11242818641,
      933137616,
      1780157543,
      902204475,
      902204568,
      902204541,
      902204474,
      902204511,
      902204564,
      844502425,
      11672645411,
      1779032815,
      11748267817,
      11672645412,
      11672645409,
      11672645408
    ],
    "tags": {
      "amenity": "school",
      "barrier": "fence",
      "name": "Школа № 201 «Согласие»"
    }
  },
  {
    "type": "way",
    "id": 77384211,
    "center": {
      "lat": 56.9040744,
      "lon": 60.6180625
    },
    "nodes": [
      910868857,
      910868729,
      1003932723,
      1003932719,
      1003932753,
      910868646,
      1793623591,
      1003932513,
      1003932786,
      910868592,
      1003932309,
      1007466882,
      1007466364,
      1007466718,
      910868846,
      910868857
    ],
    "tags": {
      "amenity": "school",
      "barrier": "fence",
      "name": "Школа №138"
    }
  },
  {
    "type": "way",
    "id": 77857368,
    "center": {
      "lat": 56.8517529,
      "lon": 60.6526871
    },
    "nodes": [
      915253845,
      915253847,
      3172284690,
      915253832,
      915253846,
      915253845
    ],
    "tags": {
      "amenity": "school",
      "barrier": "fence",
      "name": "Школа № 43"
    }
  },
  {
    "type": "way",
    "id": 77880333,
    "center": {
      "lat": 56.8603134,
      "lon": 60.6368143
    },
    "nodes": [
      915425427,
      1513817872,
      915425430,
      915425429,
      915425428,
      915425427
    ],
    "tags": {
      "amenity": "school",
      "barrier": "fence",
      "name": "Гимназия №35",
      "wikidata": "Q4138553",
      "wikipedia": "ru:Гимназия № 35 (Екатеринбург)"
    }
  },
  {
    "type": "way",
    "id": 77972644,
    "center": {
      "lat": 56.7419707,
      "lon": 60.6099167
    },
    "nodes": [
      916398686,
      916398551,
      916398761,
      916398830,
      916398686
    ],
    "tags": {
      "addr:city": "Екатеринбург",
      "addr:country": "RU",
      "addr:housenumber": "10А",
      "addr:postcode": "620024",
      "addr:street": "Бисертская улица",
      "amenity": "school",
      "building": "yes",
      "denomination": "russian_orthodox",
      "name": "Гимназия во имя святых царственных страстотерпцев",
      "religion": "christian"
    }
  },
  {
    "type": "way",
    "id": 80962181,
    "center": {
      "lat": 56.8522949,
      "lon": 60.6143959
    },
    "nodes": [
      943972729,
      943972740,
      5621060676,
      943972748,
      943972771,
      2116210455,
      943972729
    ],
    "tags": {
      "amenity": "school",
      "barrier": "fence",
      "name": "Школа № 30"
    }
  },
  {
    "type": "way",
    "id": 81278076,
    "center": {
      "lat": 56.7839015,
      "lon": 60.6637173
    },
    "nodes": [
      946937911,
      946937912,
      5938261439,
      946937913,
      946937914,
      946937915,
      946937916,
      5241127604,
      5241127605,
      946937917,
      946937918,
      5240415844,
      5241127617,
      5241127618,
      5467763520,
      946937911
    ],
    "tags": {
      "addr:housenumber": "4",
      "addr:street": "улица Дарвина",
      "amenity": "school",
      "name": "Школа-интернат № 6"
    }
  },
  {
    "type": "way",
    "id": 85821373,
    "center": {
      "lat": 56.8199099,
      "lon": 60.6326301
    },
    "nodes": [
      996201135,
      996201131,
      996201136,
      996201138,
      996201140,
      996201143,
      996201146,
      996201148,
      996201135
    ],
    "tags": {
      "amenity": "school",
      "barrier": "fence",
      "name": "Дом Детского Творчества Октябрьского района"
    }
  },
  {
    "type": "way",
    "id": 85958690,
    "center": {
      "lat": 56.8263082,
      "lon": 60.6479257
    },
    "nodes": [
      922829901,
      997735462,
      5776568751,
      997735463,
      5776568749,
      997735464,
      1607295770,
      4620615109,
      997735427,
      997735430,
      991300038,
      241886212,
      997735470,
      922829901
    ],
    "tags": {
      "amenity": "school",
      "name": "Средняя школа № 7"
    }
  },
  {
    "type": "way",
    "id": 86963490,
    "center": {
      "lat": 56.9243901,
      "lon": 60.6104018
    },
    "nodes": [
      1011659435,
      1011656985,
      1011655233,
      1011638904,
      1011648947,
      1011655545,
      1011660348,
      1011657272,
      1011657564,
      1011659435
    ],
    "tags": {
      "amenity": "school",
      "barrier": "fence",
      "name": "Школа №160"
    }
  },
  {
    "type": "way",
    "id": 87038671,
    "center": {
      "lat": 56.7864894,
      "lon": 60.6436611
    },
    "nodes": [
      683513057,
      2189277077,
      1012379463,
      1012379464,
      2189277093,
      1012379466,
      1012379467,
      1012379468,
      1012379469,
      683513127,
      683513057
    ],
    "tags": {
      "amenity": "school",
      "barrier": "fence",
      "name": "Школа № 91"
    }
  },
  {
    "type": "way",
    "id": 88292093,
    "center": {
      "lat": 56.8923791,
      "lon": 60.6161834
    },
    "nodes": [
      1025563043,
      1025562824,
      1025562993,
      1025563227,
      1025563302,
      1025563163,
      1025563431,
      1025562881,
      1025562843,
      1025562962,
      1025563043
    ],
    "tags": {
      "amenity": "school",
      "barrier": "fence",
      "name": "Школа №136"
    }
  },
  {
    "type": "way",
    "id": 92370472,
    "center": {
      "lat": 56.9030942,
      "lon": 60.7214398
    },
    "nodes": [
      1072190494,
      1072190698,
      1072190398,
      1072190426,
      1072190473,
      1072190507,
      1072190548,
      1072190590,
      1072190622,
      1072190434,
      1072190444,
      1072190494
    ],
    "tags": {
      "amenity": "school",
      "barrier": "fence",
      "name": "Кадетская школа-интернат «Екатеринбургский кадетский корпус»"
    }
  },
  {
    "type": "way",
    "id": 95348077,
    "center": {
      "lat": 56.8015465,
      "lon": 60.5780923
    },
    "nodes": [
      1105799858,
      1105799854,
      1105799848,
      1105799831,
      1248416000,
      1105799827,
      1105799857,
      1105799853,
      1105799825,
      2269679130,
      1746529478,
      1105799821,
      2643407393,
      1746529498,
      1105799842,
      1105799838,
      1105799858
    ],
    "tags": {
      "amenity": "school",
      "name": "Школа № 109"
    }
  },
  {
    "type": "way",
    "id": 95350404,
    "center": {
      "lat": 56.7622044,
      "lon": 60.6066840
    },
    "nodes": [
      1105820551,
      1105820555,
      1105820560,
      1105820550,
      1105820557,
      1105820553,
      1105820551
    ],
    "tags": {
      "amenity": "school",
      "name": "Школа № 21"
    }
  },
  {
    "type": "way",
    "id": 95918781,
    "center": {
      "lat": 56.8636014,
      "lon": 60.6437132
    },
    "nodes": [
      1111390838,
      1111390829,
      2135546815,
      1111390824,
      1111390835,
      1111390842,
      1111390832,
      2135546817,
      1111390838
    ],
    "tags": {
      "amenity": "school",
      "barrier": "fence",
      "name": "Средняя школа № 165"
    }
  },
  {
    "type": "way",
    "id": 96831324,
    "center": {
      "lat": 56.7843040,
      "lon": 60.6612169
    },
    "nodes": [
      1121959514,
      1121959538,
      1121959521,
      1121959540,
      1121959525,
      1121959524,
      1121959542,
      1121959526,
      1121959517,
      1121959519,
      1121959535,
      1121959514
    ],
    "tags": {
      "amenity": "school",
      "name": "Школа № 131"
    }
  },
  {
    "type": "way",
    "id": 97870416,
    "center": {
      "lat": 56.8922662,
      "lon": 60.5869009
    },
    "nodes": [
      1132772668,
      1132772987,
      1132772725,
      1132773176,
      1132773169,
      1132772707,
      1132772668
    ],
    "tags": {
      "amenity": "school",
      "barrier": "fence",
      "name": "Школа \"Источник\""
    }
  },
  {
    "type": "way",
    "id": 100012180,
    "center": {
      "lat": 56.8654665,
      "lon": 60.5388407
    },
    "nodes": [
      1156318437,
      1156318438,
      1156318441,
      1156318442,
      1156318444,
      1156318445,
      1514456601,
      1514456600,
      1156318446,
      1156318448,
      1514456570,
      1156318449,
      1156318451,
      1514456573,
      1156318437
    ],
    "tags": {
      "amenity": "school",
      "barrier": "fence",
      "fence_type": "metal",
      "name": "Гимназия № 174",
      "phone": "+73433662474",
      "website": "гимназия174.екатеринбург.рф",
      "wikidata": "Q4138539",
      "wikipedia": "ru:Гимназия № 174 (Екатеринбург)"
    }
  },
  {
    "type": "way",
    "id": 100671208,
    "center": {
      "lat": 56.7874810,
      "lon": 60.7773828
    },
    "nodes": [
      1163829055,
      1163829112,
      1163829022,
      1163829013,
      1163829028,
      1163829052,
      1163829031,
      1163829068,
      1163829055
    ],
    "tags": {
      "amenity": "school",
      "barrier": "fence",
      "name": "Школа № 71"
    }
  },
  {
    "type": "way",
    "id": 101809616,
    "center": {
      "lat": 56.7789102,
      "lon": 60.6377774
    },
    "nodes": [
      1175265206,
      1175265235,
      1175265145,
      1175265239,
      1175265149,
      1175265203,
      1175265230,
      1175265158,
      1175265186,
      1175265206
    ],
    "tags": {
      "amenity": "school",
      "name": "Школа №59",
      "official_name": "Средняя общеобразовательная школа №59"
    }
  },
  {
    "type": "way",
    "id": 103201278,
    "center": {
      "lat": 56.7837031,
      "lon": 60.6632373
    },
    "nodes": [
      1191583489,
      1191583303,
      1191583318,
      1191583075,
      5241127594,
      1191583827,
      5241128129,
      5241128128,
      5241128123,
      829799258,
      829799350,
      829799316,
      829799299,
      5241128127,
      1191583489
    ],
    "tags": {
      "addr:housenumber": "4",
      "addr:street": "улица Дарвина",
      "amenity": "school",
      "building": "yes",
      "name": "Школа № 6"
    }
  },
  {
    "type": "way",
    "id": 107957091,
    "center": {
      "lat": 56.8291254,
      "lon": 60.5494093
    },
    "nodes": [
      1239629939,
      1239629921,
      1239629893,
      2933720982,
      2933720983,
      1239629916,
      2933720994,
      1239629939
    ],
    "tags": {
      "amenity": "school",
      "name": "Школа № 121"
    }
  },
  {
    "type": "way",
    "id": 107957095,
    "center": {
      "lat": 56.8288688,
      "lon": 60.5523884
    },
    "nodes": [
      1239629920,
      1239629911,
      1239629928,
      1239629897,
      1239629923,
      1239629894,
      1239629917,
      1239629920
    ],
    "tags": {
      "amenity": "school",
      "name": "Менталитет"
    }
  },
  {
    "type": "way",
    "id": 108543506,
    "center": {
      "lat": 56.8071729,
      "lon": 60.7114758
    },
    "nodes": [
      1245134039,
      1245133865,
      1780447985,
      1780447982,
      1245134124,
      1245134051,
      1245134039
    ],
    "tags": {
      "amenity": "school",
      "name": "Школа № 15"
    }
  },
  {
    "type": "way",
    "id": 108894813,
    "center": {
      "lat": 56.7981084,
      "lon": 60.5696846
    },
    "nodes": [
      1248356796,
      1761917818,
      1761917822,
      1248356791,
      5684040108,
      1248356790,
      5684040112,
      1248356787,
      1248356799,
      1248356794,
      2888591067,
      3671314115,
      5684040109,
      1248356796
    ],
    "tags": {
      "amenity": "school",
      "barrier": "fence",
      "name": "Средняя школа № 140"
    }
  },
  {
    "type": "way",
    "id": 108894814,
    "center": {
      "lat": 56.7961730,
      "lon": 60.5690428
    },
    "nodes": [
      1248356792,
      1248356788,
      2888591092,
      2888593212,
      1248356800,
      2888591017,
      1248356795,
      2888591098,
      1248356792
    ],
    "tags": {
      "amenity": "school",
      "barrier": "fence",
      "name": "Лицей № 159"
    }
  },
  {
    "type": "way",
    "id": 108907052,
    "center": {
      "lat": 56.8024624,
      "lon": 60.5767498
    },
    "nodes": [
      1105799858,
      2269679149,
      1746529517,
      1248416002,
      4384827549,
      1248416001,
      1746529537,
      1248416000,
      1105799831,
      1105799848,
      1105799854,
      1105799858
    ],
    "tags": {
      "amenity": "school",
      "name": "Школа № 152"
    }
  },
  {
    "type": "way",
    "id": 111101673,
    "center": {
      "lat": 56.9166707,
      "lon": 60.4723401
    },
    "nodes": [
      1266583210,
      1266583197,
      1266583202,
      1266583235,
      1266583209,
      1266583203,
      1266583210
    ],
    "tags": {
      "amenity": "school",
      "barrier": "fence",
      "fence_type": "metal",
      "name": "Средняя школа № 221",
      "phone": "+73433761212",
      "website": "школа221.екатеринбург.рф"
    }
  },
  {
    "type": "way",
    "id": 111511360,
    "center": {
      "lat": 56.8604509,
      "lon": 60.6551544
    },
    "nodes": [
      1420179565,
      3893658585,
      1420179564,
      1420179569,
      1420179572,
      1270274463,
      3244455965,
      2876044785,
      1827836601,
      2876044784,
      1270274457,
      2689974092,
      1270274464,
      1270274461,
      1270274454,
      1420179565
    ],
    "tags": {
      "amenity": "school",
      "barrier": "fence",
      "name": "Гимназия №47 (Начальная школа)",
      "website": "http://gimnazium47.ru"
    }
  },
  {
    "type": "way",
    "id": 111571495,
    "center": {
      "lat": 56.8520131,
      "lon": 60.5864529
    },
    "nodes": [
      1270826576,
      1270826580,
      1720734322,
      1720734425,
      1720734433,
      1270826598,
      1270826612,
      1720734485,
      1720734482,
      1720734477,
      1720734398,
      1720734376,
      1720734372,
      1720734368,
      1270826610,
      1104440008,
      1720734328,
      1720734311,
      1270826582,
      884305476,
      884305475,
      884305483,
      884305492,
      1270826606,
      1720734279,
      1720734301,
      1270826576
    ],
    "tags": {
      "amenity": "school",
      "barrier": "fence",
      "name": "Средняя школа №208"
    }
  },
  {
    "type": "way",
    "id": 112598571,
    "center": {
      "lat": 56.8105463,
      "lon": 60.6143228
    },
    "nodes": [
      1279440304,
      3830297373,
      411822922,
      955896311,
      2447753298,
      411822919,
      1802576024,
      955896318,
      1802576011,
      1802575997,
      1802575787,
      1279440308,
      1279440295,
      1279440314,
      1802575821,
      1279440304
    ],
    "tags": {
      "amenity": "school",
      "name": "Гимназия № 120"
    }
  },
  {
    "type": "way",
    "id": 113792726,
    "center": {
      "lat": 56.8775756,
      "lon": 60.7374730
    },
    "nodes": [
      1290051159,
      1290051144,
      1290051152,
      1290051141,
      1290051142,
      1290051159
    ],
    "tags": {
      "amenity": "school",
      "name": "Школа № 33"
    }
  },
  {
    "type": "way",
    "id": 114252600,
    "center": {
      "lat": 56.9027021,
      "lon": 60.6436120
    },
    "nodes": [
      1294615985,
      1294615986,
      1294615984,
      1294615938,
      1294615985
    ],
    "tags": {
      "amenity": "school",
      "barrier": "fence",
      "name": "Средняя Школа №114"
    }
  },
  {
    "type": "way",
    "id": 115668170,
    "center": {
      "lat": 56.7965515,
      "lon": 60.4877576
    },
    "nodes": [
      1306149692,
      1306149726,
      1306149773,
      1306149652,
      3985776665,
      1306149757,
      1306149799,
      1306149692
    ],
    "tags": {
      "amenity": "school",
      "name": "Школа № 25"
    }
  },
  {
    "type": "way",
    "id": 116884222,
    "center": {
      "lat": 56.8704188,
      "lon": 60.5453443
    },
    "nodes": [
      1316621893,
      1316621895,
      1316621891,
      1316621889,
      1316621886,
      1316621901,
      1316621899,
      1316621903,
      1316621897,
      1316621893
    ],
    "tags": {
      "amenity": "school",
      "barrier": "fence",
      "name": "Средняя школа № 183"
    }
  },
  {
    "type": "way",
    "id": 117025127,
    "center": {
      "lat": 56.8701970,
      "lon": 60.5323893
    },
    "nodes": [
      1318292965,
      1318292802,
      1318292982,
      1318292908,
      1318292854,
      1318292782,
      1318292956,
      4061587280,
      1318292977,
      1318292965
    ],
    "tags": {
      "amenity": "school",
      "barrier": "fence",
      "name": "Средняя школа № 83"
    }
  },
  {
    "type": "way",
    "id": 117025129,
    "center": {
      "lat": 56.8684257,
      "lon": 60.5245101
    },
    "nodes": [
      1318292864,
      1318292951,
      1318292878,
      1318292824,
      1318292843,
      1318292791,
      1318292864
    ],
    "tags": {
      "amenity": "school",
      "name": "Школа № 50"
    }
  },
  {
    "type": "way",
    "id": 117025130,
    "center": {
      "lat": 56.8668565,
      "lon": 60.5409721
    },
    "nodes": [
      1318292925,
      1318292783,
      1318292957,
      1318292978,
      1318292926,
      1318292850,
      1318292799,
      1318292952,
      7941350358,
      1318292925
    ],
    "tags": {
      "amenity": "school",
      "barrier": "fence",
      "name": "Средняя школа № 170"
    }
  },
  {
    "type": "way",
    "id": 117099086,
    "center": {
      "lat": 56.8851571,
      "lon": 60.5163261
    },
    "nodes": [
      1319121014,
      1783786585,
      1319121194,
      1319121033,
      1319120950,
      1783786522,
      1319120887,
      1783786419,
      1783786425,
      1783786421,
      1319121232,
      1783786413,
      1319120929,
      1783786440,
      1319120833,
      1319121014
    ],
    "tags": {
      "amenity": "school",
      "barrier": "fence",
      "name": "Школа № 122"
    }
  },
  {
    "type": "way",
    "id": 117802463,
    "center": {
      "lat": 56.8244736,
      "lon": 60.5910103
    },
    "nodes": [
      1326227780,
      6714086563,
      6714086562,
      5816040785,
      5816040784,
      5816040786,
      1326227784,
      1326227810,
      846541161,
      3964456079,
      3964456078,
      9015283915,
      3207435570,
      9025084184,
      1794764888,
      1794764887,
      1794764889,
      1326227816,
      1326227782,
      3181277669,
      1326227823,
      1326227840,
      1326227778,
      1326227794,
      1326227780
    ],
    "tags": {
      "amenity": "school",
      "name": "Лицей № 173"
    }
  },
  {
    "type": "way",
    "id": 117802469,
    "center": {
      "lat": 56.8236627,
      "lon": 60.5902142
    },
    "nodes": [
      1326227835,
      1326227825,
      1326227827,
      664559159,
      3964412364,
      846539867,
      1326227835
    ],
    "tags": {
      "amenity": "school",
      "name": "Гимназия № 5"
    }
  },
  {
    "type": "way",
    "id": 119438190,
    "center": {
      "lat": 56.7721444,
      "lon": 60.6028058
    },
    "nodes": [
      1342099624,
      1342099340,
      1342099566,
      1342099478,
      1342099366,
      1342099297,
      1342099597,
      1342099624
    ],
    "tags": {
      "amenity": "school",
      "barrier": "fence",
      "name": "Школа № 87"
    }
  },
  {
    "type": "way",
    "id": 120199453,
    "center": {
      "lat": 56.8755553,
      "lon": 60.6850340
    },
    "nodes": [
      1348270740,
      1348270724,
      1348270713,
      1348270698,
      1348270686,
      1348270746,
      1348270729,
      1348270721,
      1348270702,
      1348270688,
      1348270740
    ],
    "tags": {
      "amenity": "school",
      "name": "Школа № 24"
    }
  },
  {
    "type": "way",
    "id": 120386432,
    "center": {
      "lat": 56.8364907,
      "lon": 60.6601611
    },
    "nodes": [
      1274542592,
      1349979922,
      1349979925,
      1980601151,
      1980601153,
      3346096103,
      3346096104,
      3346096106,
      3346096105,
      1980601152,
      969721655,
      1274542592
    ],
    "tags": {
      "amenity": "school",
      "barrier": "fence",
      "name": "Школа № 134"
    }
  },
  {
    "type": "way",
    "id": 120795410,
    "center": {
      "lat": 56.8322236,
      "lon": 60.5938644
    },
    "nodes": [
      670189532,
      1367503883,
      1367503887,
      1367503888,
      1367503890,
      1367503891,
      1367503892,
      1753797315,
      1367503881,
      1367503884,
      1367503880,
      7323072951,
      1367503878,
      1353637301,
      1367503875,
      1674296818,
      1674296819,
      1674296826,
      1367503879,
      670189532
    ],
    "tags": {
      "amenity": "school",
      "name": "Гимназия № 5"
    }
  },
  {
    "type": "way",
    "id": 124694081,
    "center": {
      "lat": 56.8189333,
      "lon": 60.5849515
    },
    "nodes": [
      1387084361,
      1387084365,
      1387084369,
      1387084368,
      1387084362,
      1387084361
    ],
    "tags": {
      "amenity": "school",
      "barrier": "fence",
      "name": "Школа 141",
      "phone": "+7 343 2331629"
    }
  },
  {
    "type": "way",
    "id": 124701818,
    "center": {
      "lat": 56.9017648,
      "lon": 60.6308378
    },
    "nodes": [
      1387158607,
      1387158614,
      1387158617,
      1387158622,
      1387158612,
      1387158604,
      1387158607
    ],
    "tags": {
      "amenity": "school",
      "barrier": "fence",
      "name": "Школа №46"
    }
  },
  {
    "type": "way",
    "id": 126463199,
    "center": {
      "lat": 56.8874196,
      "lon": 60.6218616
    },
    "nodes": [
      957409772,
      957409744,
      1401843068,
      1401843069,
      1401843072,
      1401843071,
      1401843073,
      957409772
    ],
    "tags": {
      "amenity": "school",
      "name": "Школа №66"
    }
  },
  {
    "type": "way",
    "id": 126463200,
    "center": {
      "lat": 56.8861766,
      "lon": 60.6218669
    },
    "nodes": [
      1401843064,
      1401843066,
      1401843059,
      1401843061,
      1401843054,
      4119513600,
      4119513599,
      1401843052,
      1401843053,
      4119513602,
      1401843051,
      1401843064
    ],
    "tags": {
      "amenity": "school",
      "name": "Школа №78"
    }
  },
  {
    "type": "way",
    "id": 127711660,
    "center": {
      "lat": 56.8174645,
      "lon": 60.5768950
    },
    "nodes": [
      1412917650,
      1412917644,
      1412917642,
      9199107148,
      1412917628,
      2471579949,
      1412917630,
      1412917646,
      1412917649,
      1412917650
    ],
    "tags": {
      "amenity": "school",
      "barrier": "fence",
      "fence_type": "metal",
      "height": "3",
      "name": "Школа № 143",
      "official_name": "МБОУ СОШ №143"
    }
  },
  {
    "type": "way",
    "id": 127724479,
    "center": {
      "lat": 56.8367761,
      "lon": 60.5499934
    },
    "nodes": [
      1413042048,
      1413042050,
      8628270158,
      1413042049,
      1413042045,
      1413042048
    ],
    "tags": {
      "amenity": "school",
      "name": "Школа № 73"
    }
  },
  {
    "type": "way",
    "id": 127724480,
    "center": {
      "lat": 56.8153705,
      "lon": 60.6090635
    },
    "nodes": [
      639030497,
      639030495,
      1413042042,
      1413042041,
      1990653902,
      1990653903,
      1413042044,
      1413042036,
      1413042034,
      1413042033,
      1413042031,
      639030475,
      639030474,
      639030492,
      639030500,
      639030497
    ],
    "tags": {
      "amenity": "school",
      "name": "Школа № 93"
    }
  },
  {
    "type": "way",
    "id": 128073276,
    "center": {
      "lat": 56.7651776,
      "lon": 60.5984917
    },
    "nodes": [
      1416117906,
      1416117912,
      8978777353,
      1654629020,
      1416117913,
      1416117910,
      1416117901,
      1416117906
    ],
    "tags": {
      "amenity": "school",
      "name": "Школа № 156"
    }
  },
  {
    "type": "way",
    "id": 128378387,
    "center": {
      "lat": 56.7737709,
      "lon": 60.6050920
    },
    "nodes": [
      1418955937,
      1418955938,
      1418955941,
      1418955939,
      1418955937
    ],
    "tags": {
      "amenity": "school",
      "barrier": "fence",
      "name": "Школа № 61"
    }
  },
  {
    "type": "way",
    "id": 128504280,
    "center": {
      "lat": 56.7887719,
      "lon": 60.5199737
    },
    "nodes": [
      1420015640,
      4275078215,
      4275149588,
      1626671327,
      1420015642,
      4275149796,
      1626671306,
      4275149794,
      1626671281,
      1626671203,
      2748931135,
      1626671022,
      1626670908,
      5524143615,
      1420015632,
      4273359776,
      4273346821,
      1626670986,
      4275078191,
      2302097487,
      1420015640
    ],
    "tags": {
      "amenity": "school",
      "name": "Школа № 16",
      "ref": "16"
    }
  },
  {
    "type": "way",
    "id": 131649715,
    "center": {
      "lat": 56.8334673,
      "lon": 60.5382995
    },
    "nodes": [
      1448673405,
      1448673404,
      1448673406,
      1448673407,
      2431942340,
      2431942324,
      1448673405
    ],
    "tags": {
      "amenity": "school",
      "name": "Школа №63"
    }
  },
  {
    "type": "way",
    "id": 132317089,
    "center": {
      "lat": 56.8916934,
      "lon": 60.6225924
    },
    "nodes": [
      1455760660,
      1455760661,
      1455760662,
      844607492,
      844607527,
      1455760656,
      1455760659,
      1455760663,
      1455760664,
      1455760660
    ],
    "tags": {
      "amenity": "school",
      "barrier": "fence",
      "name": "Школа Гелиос"
    }
  },
  {
    "type": "way",
    "id": 134990025,
    "center": {
      "lat": 56.8395390,
      "lon": 60.6537180
    },
    "nodes": [
      1483243306,
      1314841755,
      1314841759,
      1306509324,
      1306509873,
      1306509514,
      709006283,
      1483243318,
      10769256244,
      10796544303,
      10796602910,
      10796544304,
      10796544302,
      924961557,
      924961736,
      1483243306
    ],
    "tags": {
      "amenity": "school",
      "name": "Школа № 36"
    }
  },
  {
    "type": "way",
    "id": 136181081,
    "center": {
      "lat": 56.8721029,
      "lon": 60.5292316
    },
    "nodes": [
      1494219099,
      1494219100,
      1494219097,
      1494219103,
      1494219102,
      1494219095,
      1494219098,
      1494219101,
      1494219099
    ],
    "tags": {
      "amenity": "school",
      "name": "Средняя школа № 172"
    }
  },
  {
    "type": "way",
    "id": 136193118,
    "center": {
      "lat": 56.8763461,
      "lon": 60.5124849
    },
    "nodes": [
      1494336689,
      1494336697,
      1494336680,
      1494336683,
      1494336699,
      1494336698,
      1494336687,
      10721154250,
      10721154249,
      1494336696,
      2517507618,
      2517507624,
      1494336689
    ],
    "tags": {
      "amenity": "school",
      "barrier": "fence",
      "fence_type": "metal",
      "name": "Школа-интернат № 13"
    }
  },
  {
    "type": "way",
    "id": 138397587,
    "center": {
      "lat": 56.8697152,
      "lon": 60.5256114
    },
    "nodes": [
      1517550255,
      1517550261,
      1517550257,
      1517550254,
      1517550255
    ],
    "tags": {
      "amenity": "school",
      "barrier": "fence",
      "contact:website": "http://www.dmsh7.ru/",
      "name": "Детская музыкальная школа № 7 им. С. В. Рахманинова",
      "training": "music"
    }
  },
  {
    "type": "way",
    "id": 140110999,
    "center": {
      "lat": 56.7901983,
      "lon": 60.7705452
    },
    "nodes": [
      1535127444,
      1535127443,
      1535127441,
      4336503565,
      4336503562,
      1535127442,
      1535127444
    ],
    "tags": {
      "amenity": "school",
      "barrier": "fence",
      "name": "Школа № 53"
    }
  },
  {
    "type": "way",
    "id": 142459147,
    "center": {
      "lat": 56.7492492,
      "lon": 60.6792036
    },
    "nodes": [
      1559085094,
      1559085093,
      1559085096,
      9314311015,
      1559085102,
      1559085100,
      1559085101,
      1559085099,
      1559085098,
      1559085097,
      1559085095,
      1559085094
    ],
    "tags": {
      "amenity": "school",
      "name": "Школа №34"
    }
  },
  {
    "type": "way",
    "id": 148507879,
    "center": {
      "lat": 56.8507652,
      "lon": 60.6205027
    },
    "nodes": [
      1616027535,
      1616027512,
      1616027513,
      1616027503,
      4806935790,
      1616027507,
      1900552822,
      1900552823,
      1900552832,
      1900552827,
      1616027536,
      4806935783,
      1616027535
    ],
    "tags": {
      "amenity": "school",
      "name": "школа №75"
    }
  },
  {
    "type": "way",
    "id": 149510052,
    "center": {
      "lat": 56.8544246,
      "lon": 60.6003841
    },
    "nodes": [
      568596370,
      568596377,
      568596374,
      568596373,
      568596372,
      1624743406,
      656420518,
      656420516,
      568596371,
      568596370
    ],
    "tags": {
      "amenity": "school",
      "landuse": "construction",
      "name": "Гимназия №155"
    }
  },
  {
    "type": "way",
    "id": 150154230,
    "center": {
      "lat": 56.7781943,
      "lon": 60.6081284
    },
    "nodes": [
      945172126,
      945172112,
      1630787372,
      1630787369,
      603618468,
      603618469,
      603618474,
      603618473,
      1630787358,
      1630787357,
      945172103,
      945172107,
      945172139,
      945172126
    ],
    "tags": {
      "amenity": "school",
      "name": "Школа № 106",
      "ref": "106"
    }
  },
  {
    "type": "way",
    "id": 150154231,
    "center": {
      "lat": 56.7784029,
      "lon": 60.6095286
    },
    "nodes": [
      1270375549,
      1630787358,
      603618473,
      603618474,
      603618469,
      603618468,
      1630787369,
      1630787372,
      945172112,
      1630787377,
      1630787356,
      1270375541,
      1270375549
    ],
    "tags": {
      "amenity": "school",
      "name": "Школа-интернат № 2",
      "ref": "2"
    }
  },
  {
    "type": "way",
    "id": 151198171,
    "center": {
      "lat": 56.7455335,
      "lon": 60.6174192
    },
    "nodes": [
      1640229122,
      1640229124,
      1640229129,
      1640229130,
      1640229128,
      1640229127,
      1640229125,
      976457136,
      1640229114,
      1640229115,
      1640229122
    ],
    "tags": {
      "amenity": "school",
      "name": "Школа № 52"
    }
  },
  {
    "type": "way",
    "id": 155103717,
    "center": {
      "lat": 56.7563368,
      "lon": 60.6227856
    },
    "nodes": [
      1675390503,
      1675390523,
      1675390543,
      1675390546,
      1675390558,
      1675390570,
      1675390568,
      1675390587,
      1675390580,
      1675390530,
      1675390501,
      1675390528,
      1675390503
    ],
    "tags": {
      "amenity": "school",
      "name": "Спецшкола № 124",
      "official_name": "Областная специальная общеобразовательная школа закрытого типа № 124",
      "website": "https://www.sch124ekb.ucoz.ru/"
    }
  },
  {
    "type": "way",
    "id": 159138271,
    "center": {
      "lat": 56.7805876,
      "lon": 60.7402194
    },
    "nodes": [
      1712404878,
      1712404915,
      1712404885,
      1712404865,
      1712404878
    ],
    "tags": {
      "amenity": "school"
    }
  },
  {
    "type": "way",
    "id": 160320557,
    "center": {
      "lat": 56.8432625,
      "lon": 60.5783189
    },
    "nodes": [
      1723702845,
      1723702846,
      5619656209,
      5619656203,
      1723702840,
      939908533,
      1723702828,
      1723702830,
      1723702845
    ],
    "tags": {
      "amenity": "school",
      "name": "Гимназия № 2"
    }
  },
  {
    "type": "way",
    "id": 160495532,
    "center": {
      "lat": 56.8834042,
      "lon": 60.5048450
    },
    "nodes": [
      1794199471,
      1725512281,
      1792844965,
      1792845054,
      1725512288,
      1792845270,
      1725512291,
      1794199471
    ],
    "tags": {
      "amenity": "school",
      "barrier": "fence",
      "name": "Школа № 129"
    }
  },
  {
    "type": "way",
    "id": 164040009,
    "center": {
      "lat": 56.8234678,
      "lon": 60.5753579
    },
    "nodes": [
      1757001621,
      1757001558,
      1757001597,
      1757001598,
      1757001567,
      1757001565,
      1757001667,
      662888276,
      662888266,
      1757001668,
      7834393019,
      1757001621
    ],
    "tags": {
      "amenity": "school",
      "name": "Школа № 11"
    }
  },
  {
    "type": "way",
    "id": 164370979,
    "center": {
      "lat": 56.8685682,
      "lon": 60.5595694
    },
    "nodes": [
      1760105006,
      1760105051,
      1760104975,
      1760104926,
      1760104924,
      1760104855,
      1760104889,
      1760104938,
      1760105365,
      1760105149,
      1760105006
    ],
    "tags": {
      "amenity": "school",
      "barrier": "fence",
      "name": "Школа № 4"
    }
  },
  {
    "type": "way",
    "id": 164677122,
    "center": {
      "lat": 56.8085360,
      "lon": 60.6028462
    },
    "nodes": [
      1762953073,
      1762953086,
      1762953088,
      1762953092,
      1762953094,
      1762953115,
      1762953140,
      1762953265,
      1762953247,
      1762953220,
      1762953096,
      618566783,
      1762953091,
      1762953089,
      618770354,
      1762953071,
      618566779,
      618566782,
      1762953073
    ],
    "tags": {
      "amenity": "school",
      "barrier": "fence",
      "name": "Лицей №3"
    }
  },
  {
    "type": "way",
    "id": 166098512,
    "center": {
      "lat": 56.8462682,
      "lon": 60.5620307
    },
    "nodes": [
      1775823617,
      1775823621,
      1775823615,
      1780211413,
      1780211411,
      1775823614,
      5629791749,
      5629791748,
      1775823617
    ],
    "tags": {
      "amenity": "school",
      "barrier": "fence",
      "name": "Школа №185"
    }
  },
  {
    "type": "way",
    "id": 166370302,
    "center": {
      "lat": 56.8975748,
      "lon": 60.5807171
    },
    "nodes": [
      1778188232,
      1778188336,
      1778188251,
      1778188172,
      1778188165,
      1778188147,
      1778188158,
      418929051,
      1778188135,
      1778188127,
      418929048,
      1778188081,
      1778188065,
      1778188063,
      1778188232
    ],
    "tags": {
      "amenity": "school",
      "barrier": "fence",
      "fence:material": "steel",
      "fence_type": "grate",
      "height": "1.7",
      "name": "Школа №103"
    }
  },
  {
    "type": "way",
    "id": 166455190,
    "center": {
      "lat": 56.8520992,
      "lon": 60.5668511
    },
    "nodes": [
      1779032660,
      1779032784,
      1779032792,
      1779032773,
      1779032654,
      1779032624,
      1779032567,
      1779032453,
      1779032462,
      1779032572,
      1779032594,
      1779032660
    ],
    "tags": {
      "amenity": "school",
      "barrier": "fence",
      "name": "Лицей №12"
    }
  },
  {
    "type": "way",
    "id": 166896293,
    "center": {
      "lat": 56.8657053,
      "lon": 60.5533501
    },
    "nodes": [
      1783135582,
      1783135590,
      1783135621,
      1783135634,
      1783135635,
      1783135674,
      1783135763,
      1783135762,
      1783135759,
      1783135661,
      1783135582
    ],
    "tags": {
      "amenity": "school",
      "barrier": "fence",
      "name": "Школа № 148"
    }
  },
  {
    "type": "way",
    "id": 166896294,
    "center": {
      "lat": 56.8623472,
      "lon": 60.5544496
    },
    "nodes": [
      1783135174,
      1783135108,
      1783135109,
      1783135113,
      1783135115,
      1783135116,
      1783135363,
      1783135360,
      1783135357,
      1783135356,
      1783135247,
      1783135220,
      1783135223,
      1783135187,
      1783135175,
      1783135174
    ],
    "tags": {
      "amenity": "school",
      "barrier": "fence",
      "name": "Школа № 149"
    }
  },
  {
    "type": "way",
    "id": 166896295,
    "center": {
      "lat": 56.8657798,
      "lon": 60.5555485
    },
    "nodes": [
      1783135761,
      1783135764,
      1783135765,
      1783135766,
      1783135686,
      1783135618,
      1783135617,
      1783135615,
      1783135607,
      1783135606,
      1783135604,
      1783135603,
      1783135676,
      1783135697,
      1783135703,
      1783135761
    ],
    "tags": {
      "amenity": "school",
      "name": "Школа № 166"
    }
  },
  {
    "type": "way",
    "id": 168112152,
    "center": {
      "lat": 56.8799831,
      "lon": 60.5084093
    },
    "nodes": [
      1794198670,
      1794198637,
      1794198579,
      1794198610,
      1794198655,
      1794198830,
      1794198764,
      1794198670
    ],
    "tags": {
      "amenity": "school",
      "barrier": "fence",
      "name": "Средняя общеобразовательная школа № 129"
    }
  },
  {
    "type": "way",
    "id": 194236855,
    "center": {
      "lat": 56.8443997,
      "lon": 60.6290425
    },
    "nodes": [
      453997067,
      2047602819,
      957928421,
      6813552435,
      6813552434,
      957928426,
      2108558625,
      957928424,
      6813552438,
      2108558617,
      453997104,
      6813552448,
      6813552449,
      453997099,
      453997095,
      453997093,
      6813552443,
      6813552442,
      6813552441,
      6813552440,
      453997091,
      453997089,
      453997087,
      453997085,
      453997077,
      2106991680,
      453997054,
      453997070,
      5464948334,
      5464948335,
      453997067
    ],
    "tags": {
      "amenity": "school",
      "name": "Гимназия № 37",
      "name:ru": "Гимназия № 37"
    }
  },
  {
    "type": "way",
    "id": 203123167,
    "center": {
      "lat": 56.7566440,
      "lon": 60.7008230
    },
    "nodes": [
      2130948545,
      2130948542,
      2130948547,
      2130948551,
      2130948552,
      2130948550,
      2130948549,
      2130948545
    ],
    "tags": {
      "amenity": "school",
      "barrier": "fence",
      "fence_type": "split_rail",
      "name": "Лицей № 135",
      "ref": "135"
    }
  },
  {
    "type": "way",
    "id": 205443611,
    "center": {
      "lat": 56.7553647,
      "lon": 60.7019210
    },
    "nodes": [
      2154172842,
      2154172872,
      2154172874,
      708540686,
      2154172873,
      2154172875,
      2154172867,
      2154172842
    ],
    "tags": {
      "amenity": "school",
      "name": "Школа № 86",
      "ref": "86"
    }
  },
  {
    "type": "way",
    "id": 205444369,
    "center": {
      "lat": 56.7501725,
      "lon": 60.6987936
    },
    "nodes": [
      2154179826,
      2154179828,
      2154179829,
      2154179830,
      2154179831,
      2154179832,
      2154179833,
      2154179827,
      2154179826
    ],
    "tags": {
      "amenity": "school",
      "name": "Школа № 132",
      "ref": "132"
    }
  },
  {
    "type": "way",
    "id": 209182792,
    "center": {
      "lat": 56.8070422,
      "lon": 60.6004587
    },
    "nodes": [
      618566692,
      618566693,
      2194134287,
      2194134254,
      2194134259,
      2194134237,
      2194134242,
      2194134245,
      2194134253,
      2194134303,
      618566774,
      618566773,
      2194134278,
      618566692
    ],
    "tags": {
      "amenity": "school",
      "barrier": "fence",
      "name": "Школа № 118"
    }
  },
  {
    "type": "way",
    "id": 218210565,
    "center": {
      "lat": 56.7690584,
      "lon": 60.6077753
    },
    "nodes": [
      2274824419,
      1524369256,
      2274824417,
      2274824414,
      2274824419
    ],
    "tags": {
      "amenity": "school",
      "name": "Школа № 44"
    }
  },
  {
    "type": "way",
    "id": 221153475,
    "center": {
      "lat": 56.7879069,
      "lon": 60.5219515
    },
    "nodes": [
      2302098084,
      5524136300,
      5524136303,
      5524136291,
      2302098088,
      2290422550,
      2328276170,
      5524136309,
      4097127007,
      2302098083,
      4273359767,
      4273359771,
      2302098084
    ],
    "tags": {
      "amenity": "school",
      "barrier": "fence",
      "name": "Школа № 19"
    }
  },
  {
    "type": "way",
    "id": 222003857,
    "center": {
      "lat": 56.8963995,
      "lon": 60.6447377
    },
    "nodes": [
      2309771441,
      3465748801,
      1233362820,
      3465748802,
      2309771439,
      3465748779,
      3465748780,
      3465748781,
      2309771438,
      2309771441
    ],
    "tags": {
      "amenity": "school",
      "name": "Школа № 112"
    }
  },
  {
    "type": "way",
    "id": 222728260,
    "center": {
      "lat": 56.8522148,
      "lon": 60.5596099
    },
    "nodes": [
      2629462559,
      2316709317,
      2316709316,
      2316709315,
      2316709314,
      2316709313,
      1779032599,
      1775823660,
      2316709320,
      1775823661,
      4596654082,
      4596654083,
      2629462559
    ],
    "tags": {
      "amenity": "school",
      "name": "Школа № 29"
    }
  },
  {
    "type": "way",
    "id": 222728261,
    "center": {
      "lat": 56.8515436,
      "lon": 60.5610953
    },
    "nodes": [
      2316709318,
      1779032651,
      1775823659,
      2618113122,
      1775823657,
      1775823658,
      1775823656,
      2316709313,
      2316709314,
      2316709315,
      2316709316,
      2316709317,
      2629462559,
      4596654085,
      4596654084,
      2316709318
    ],
    "tags": {
      "amenity": "school",
      "name": "Школа № 6"
    }
  },
  {
    "type": "way",
    "id": 234205223,
    "center": {
      "lat": 56.7933393,
      "lon": 60.5121820
    },
    "nodes": [
      3168009826,
      5565801099,
      2302097509,
      3168009832,
      2716469162,
      4275396803,
      4275396806,
      5565801078,
      5565801080,
      4079633394,
      5565817308,
      4273015199,
      5565817307,
      4273015223,
      4022990560,
      4272685782,
      4273134483,
      4022990559,
      2424971341,
      4022990558,
      5128226417,
      2424971340,
      2240986071,
      2509983834,
      5128226940,
      2290416123,
      2302109345,
      3168009825,
      5490094798,
      3168009826
    ],
    "tags": {
      "amenity": "school",
      "name": "Школа № 23",
      "ref": "23"
    }
  },
  {
    "type": "way",
    "id": 236356900,
    "center": {
      "lat": 56.8520171,
      "lon": 60.6192982
    },
    "nodes": [
      2443915617,
      5318290921,
      5318290924,
      5318290923,
      5318287617,
      2276828102,
      5318287608,
      4806912988,
      2276828097,
      2276828108,
      2276828116,
      4806912990,
      4806912957,
      2443915617
    ],
    "tags": {
      "amenity": "school",
      "barrier": "fence",
      "name": "Гимназия № 212 «Екатеринбург — Париж»",
      "ref": "212"
    }
  },
  {
    "type": "way",
    "id": 283542656,
    "center": {
      "lat": 56.8031802,
      "lon": 60.6075460
    },
    "nodes": [
      2873941160,
      2873941165,
      2873941161,
      3848611887,
      3848611886,
      2873941167,
      2873941160
    ],
    "tags": {
      "amenity": "school",
      "barrier": "fence",
      "name": "Школа № 18"
    }
  },
  {
    "type": "way",
    "id": 301944507,
    "center": {
      "lat": 56.8259035,
      "lon": 60.6731696
    },
    "nodes": [
      3061197237,
      3066517287,
      3061197236,
      3061197242,
      3061197238,
      3061197239,
      3061197241,
      3066517301,
      3066517300,
      3061197240,
      3061192732,
      3061192731,
      3061197234,
      3061197237
    ],
    "tags": {
      "amenity": "school",
      "barrier": "fence",
      "name": "Специальная коррекционная школа № 169"
    }
  },
  {
    "type": "way",
    "id": 305933130,
    "center": {
      "lat": 56.8343144,
      "lon": 60.6965881
    },
    "nodes": [
      3106313351,
      3106313352,
      3106313353,
      3106313354,
      3106313355,
      3106313356,
      3106313357,
      3106313351
    ],
    "tags": {
      "amenity": "school",
      "grades": "1-11",
      "name": "Школа №82",
      "phone": "+7 343 347-48-30",
      "website": "школа82.екатеринбург.рф"
    }
  },
  {
    "type": "way",
    "id": 315474642,
    "center": {
      "lat": 56.8875667,
      "lon": 60.5691480
    },
    "nodes": [
      3215934043,
      3215934284,
      3215934302,
      3215934304,
      3215934310,
      3215934283,
      3215934043
    ],
    "tags": {
      "amenity": "school",
      "barrier": "fence",
      "name": "Школа №117",
      "ref": "117"
    }
  },
  {
    "type": "way",
    "id": 325184899,
    "center": {
      "lat": 56.8907519,
      "lon": 60.6224277
    },
    "nodes": [
      1502599461,
      419262525,
      3318444319,
      419262526,
      1502599442,
      1502599444,
      1502599446,
      1502599447,
      1502599450,
      1502599453,
      1502599456,
      1502599461
    ],
    "tags": {
      "amenity": "school",
      "name": "Школа №99"
    }
  },
  {
    "type": "way",
    "id": 364907081,
    "center": {
      "lat": 56.8044505,
      "lon": 60.6071575
    },
    "nodes": [
      3689297706,
      3689297707,
      3689297708,
      3689297709,
      10991299768,
      3689297706
    ],
    "tags": {
      "amenity": "school",
      "barrier": "fence",
      "name": "Гимназия № 39"
    }
  },
  {
    "type": "way",
    "id": 377427679,
    "center": {
      "lat": 56.8502716,
      "lon": 60.6499517
    },
    "nodes": [
      1058909793,
      3807976819,
      3807976815,
      1058909615,
      1995723058,
      1995723036,
      341972942,
      493955470,
      1995723025,
      4188849529,
      341972936,
      1058909738,
      1995723096,
      1058909673,
      1058909753,
      1995723106,
      1058909793
    ],
    "tags": {
      "amenity": "school",
      "name": "Гимназия № 108"
    }
  },
  {
    "type": "way",
    "id": 397128778,
    "center": {
      "lat": 56.7578915,
      "lon": 60.7081672
    },
    "nodes": [
      3999489194,
      3999489196,
      3999489197,
      3999489198,
      3999489195,
      3999489192,
      3999489191,
      3999489193,
      3999489194
    ],
    "tags": {
      "amenity": "school",
      "name": "Школа № 20"
    }
  },
  {
    "type": "way",
    "id": 434696510,
    "center": {
      "lat": 56.7974214,
      "lon": 60.5853473
    },
    "nodes": [
      2273825555,
      2273825544,
      2273825540,
      2273825536,
      2273825511,
      2273825513,
      2273825546,
      2273825555
    ],
    "tags": {
      "addr:city": "Екатеринбург",
      "addr:housenumber": "14",
      "addr:street": "бульвар Денисова-Уральского",
      "amenity": "school",
      "name": "Муз школа №11",
      "website": "http://www.dmsh11ekb.ru/"
    }
  },
  {
    "type": "way",
    "id": 469902779,
    "center": {
      "lat": 56.8335201,
      "lon": 60.6534829
    },
    "nodes": [
      506689188,
      4641631612,
      4641631611,
      4641631610,
      506689193,
      4741296244,
      7376105580,
      506689190,
      506689188
    ],
    "tags": {
      "amenity": "school",
      "name": "Центр образования \"Творчество\""
    }
  },
  {
    "type": "way",
    "id": 505515899,
    "center": {
      "lat": 56.7721388,
      "lon": 60.5331874
    },
    "nodes": [
      4954360084,
      4954360083,
      11394166752,
      11394166524,
      11394166596,
      11394166770,
      11394166763,
      4954360082,
      4954360081,
      4954360080,
      8239566560,
      4954360084
    ],
    "tags": {
      "amenity": "school",
      "barrier": "fence",
      "name": "Школа № 123"
    }
  },
  {
    "type": "way",
    "id": 511711919,
    "center": {
      "lat": 56.8385316,
      "lon": 60.5714035
    },
    "nodes": [
      1419800461,
      8586479396,
      5004827961,
      1419800460,
      6559196283,
      1419800457,
      7856528537,
      5151035654,
      1410306078,
      1419800461
    ],
    "tags": {
      "amenity": "school",
      "check_date": "2023-01-06",
      "name": "Школа №1"
    }
  },
  {
    "type": "way",
    "id": 532924050,
    "center": {
      "lat": 56.7888021,
      "lon": 60.5064721
    },
    "nodes": [
      7130446035,
      7617651371,
      7617465501,
      7617465502,
      7617465503,
      5228051704,
      7617465529,
      7617465514,
      7617465530,
      7130446034,
      7616425082,
      7626825659,
      5228051706,
      7617651372,
      7130446035
    ],
    "tags": {
      "addr:housenumber": "77",
      "addr:street": "проспект Академика Сахарова",
      "amenity": "school",
      "barrier": "fence",
      "check_date": "2023-10-01",
      "name": "Школа № 79",
      "official_name": "МАОУ СОШ № 79",
      "ref": "79",
      "start_date": "2019",
      "website": "https://xn--79-6kc3bfr2e.xn--80acgfbsl1azdqr.xn--p1ai/",
      "wheelchair": "yes"
    }
  },
  {
    "type": "way",
    "id": 554751214,
    "center": {
      "lat": 56.8996598,
      "lon": 60.5855259
    },
    "nodes": [
      5353550287,
      5353550286,
      5353550285,
      5353550284,
      5353550287
    ],
    "tags": {
      "amenity": "school",
      "name": "Начальная школа №113"
    }
  },
  {
    "type": "way",
    "id": 570237584,
    "center": {
      "lat": 56.7502779,
      "lon": 60.5619138
    },
    "nodes": [
      5482450817,
      5482450816,
      7886210689,
      7886210688,
      7886210680,
      5716926304,
      7886210692,
      7886210690,
      7886210691,
      5482450815,
      5482450814,
      7886210594,
      5482450813,
      5482450812,
      5482450811,
      5482450810,
      7886210687,
      7072422806,
      5482450817
    ],
    "tags": {
      "amenity": "school",
      "barrier": "fence",
      "name": "Школа № 215 «Созвездие»",
      "operator": "МБОУ СОШ № 215",
      "ref": "215",
      "website": "http://школа215.екатеринбург.рф/"
    }
  },
  {
    "type": "way",
    "id": 736646506,
    "center": {
      "lat": 56.7742954,
      "lon": 60.8131807
    },
    "nodes": [
      6896969258,
      6896969255,
      2889513248,
      6896969257,
      6896969256,
      2889513202,
      2459654929,
      2889512798,
      6896969259,
      6896969258
    ],
    "tags": {
      "addr:housenumber": "31",
      "addr:postcode": "620060",
      "addr:street": "Реактивная улица",
      "amenity": "school",
      "barrier": "fence",
      "contact:email": "mou60@mou60.com",
      "contact:phone": "+7 343 2520328;+7 343 2520247",
      "contact:website": "http://школа60.екатеринбург.рф/",
      "name": "Школа № 60",
      "official_name": "МАОУ СОШ №60",
      "opening_hours": "Mo-Fr 08:00-19:30, Sa 09:00-15:00",
      "operator": "Департамент образования Администрации г.Екатеринбурга"
    }
  },
  {
    "type": "way",
    "id": 746065364,
    "center": {
      "lat": 56.8269533,
      "lon": 60.6355083
    },
    "nodes": [
      681168109,
      681205547,
      10711711403,
      11343828071,
      681205548,
      11343828069,
      11343828070,
      11343787068,
      6537044246,
      681205545,
      681168111,
      681205558,
      681205560,
      681168109
    ],
    "tags": {
      "amenity": "school"
    }
  },
  {
    "type": "way",
    "id": 753622569,
    "center": {
      "lat": 56.8067399,
      "lon": 60.6183802
    },
    "nodes": [
      7041294978,
      930364544,
      930364553,
      930364574,
      11236576857,
      7041294984,
      11236576755,
      7041294980,
      7041294978
    ],
    "tags": {
      "amenity": "school"
    }
  },
  {
    "type": "way",
    "id": 813648393,
    "center": {
      "lat": 56.7889950,
      "lon": 60.6311434
    },
    "nodes": [
      764881699,
      764881711,
      764881710,
      764881709,
      764881708,
      7630261029,
      892783985,
      892783976,
      764881705,
      764881703,
      764881702,
      964532151,
      764881700,
      764881699
    ],
    "tags": {
      "amenity": "school"
    }
  },
  {
    "type": "way",
    "id": 827062258,
    "center": {
      "lat": 56.8134388,
      "lon": 60.6228346
    },
    "nodes": [
      7721510453,
      7721510454,
      7721510455,
      7721510456,
      7721510453
    ],
    "tags": {
      "amenity": "school",
      "name": "Школа №17"
    }
  },
  {
    "type": "way",
    "id": 827062259,
    "center": {
      "lat": 56.8136680,
      "lon": 60.6240079
    },
    "nodes": [
      7721510457,
      7721510458,
      7721510459,
      7721510460,
      7721510461,
      7721510462,
      7721510457
    ],
    "tags": {
      "amenity": "school",
      "name": "Школа-интернат «Эверест»"
    }
  },
  {
    "type": "way",
    "id": 925908349,
    "center": {
      "lat": 56.8020051,
      "lon": 60.6330030
    },
    "nodes": [
      5939527920,
      918202760,
      854151348,
      5939527923,
      854151345,
      612472043,
      612472044,
      8592711708,
      8592711707,
      625128262,
      625128261,
      5939527894,
      5939527896,
      5939527893,
      918202761,
      5939527920
    ],
    "tags": {
      "amenity": "school",
      "name": "Школа №14"
    }
  },
  {
    "type": "way",
    "id": 966650024,
    "center": {
      "lat": 56.8915275,
      "lon": 60.5027008
    },
    "nodes": [
      8943244396,
      8943244397,
      8943244398,
      8943244399,
      8943244396
    ],
    "tags": {
      "amenity": "school",
      "denomination": "russian_orthodox",
      "name": "Детский просветительский центр / Воскресная школа",
      "religion": "christian"
    }
  },
  {
    "type": "way",
    "id": 1040240307,
    "center": {
      "lat": 56.8846615,
      "lon": 60.5668094
    },
    "nodes": [
      9577998493,
      9577998494,
      9577998495,
      9577998496,
      9577998497,
      9577998498,
      9577998499,
      9577998500,
      9577998493
    ],
    "tags": {
      "amenity": "school",
      "name": "Школа № 49"
    }
  },
  {
    "type": "way",
    "id": 1177164176,
    "center": {
      "lat": 56.8536922,
      "lon": 60.6414418
    },
    "nodes": [
      10936230905,
      10936230906,
      10936230907,
      10936230908,
      10936230909,
      10936230910,
      10936230911,
      10936230912,
      10936230913,
      10936230914,
      10936230915,
      10936230916,
      10936230917,
      10936230918,
      10936230919,
      10936230905
    ],
    "tags": {
      "addr:city": "Екатеринбург",
      "addr:housenumber": "79",
      "addr:postcode": "620137",
      "addr:street": "Уральская улица",
      "amenity": "school",
      "building": "school",
      "name": "Гимназия №35",
      "website": "www.gymnasia35.ru"
    }
  },
  {
    "type": "way",
    "id": 1237809685,
    "center": {
      "lat": 56.8413415,
      "lon": 60.6411203
    },
    "nodes": [
      11497519405,
      11497519406,
      11497519407,
      11497519408,
      11497519409,
      11497519410,
      11497519411,
      11497519412,
      11497519413,
      11497519414,
      11497519415,
      11497519416,
      11497519417,
      477521829,
      11497519418,
      11497519419,
      11497519420,
      477521830,
      475950157,
      475950162,
      1482073937,
      1482073936,
      475950176,
      11497519421,
      11497519405
    ],
    "tags": {
      "addr:housenumber": "64А",
      "addr:street": "проспект Ленина",
      "amenity": "school"
    }
  },
  {
    "type": "way",
    "id": 1253251939,
    "center": {
      "lat": 56.7666124,
      "lon": 60.6659165
    },
    "nodes": [
      11649003110,
      11649003109,
      11649003108,
      11649003107,
      11649003110
    ],
    "tags": {
      "amenity": "school",
      "email": "rcsh77@gmail.com",
      "name": "Русская классическая школа",
      "name:en": "Russian Classical School",
      "name:fr": "École russe classique",
      "name:ru": "Русская классическая школа",
      "official_name": "Некоммерческое частное общеобразовательное учреждение средняя общеобразовательная школа «Русская классическая школа» г. Екатеринбург",
      "phone": "+7 (343) 389-89-03",
      "website": "https://rcsh66.ru/"
    }
  },
  {
    "type": "relation",
    "id": 1842695,
    "center": {
      "lat": 56.7499877,
      "lon": 60.7019023
    },
    "members": [
      {
        "type": "way",
        "ref": 136735037,
        "role": "outer"
      },
      {
        "type": "way",
        "ref": 136735006,
        "role": "outer"
      },
      {
        "type": "way",
        "ref": 136734956,
        "role": "outer"
      },
      {
        "type": "way",
        "ref": 136734905,
        "role": "outer"
      },
      {
        "type": "way",
        "ref": 136734904,
        "role": "outer"
      },
      {
        "type": "way",
        "ref": 136735323,
        "role": "outer"
      }
    ],
    "tags": {
      "amenity": "school",
      "name": "Школа № 105",
      "ref": "105",
      "type": "multipolygon"
    }
  },
  {
    "type": "relation",
    "id": 2107459,
    "center": {
      "lat": 56.8531755,
      "lon": 60.6354351
    },
    "members": [
      {
        "type": "way",
        "ref": 157601136,
        "role": "outer"
      },
      {
        "type": "way",
        "ref": 85383069,
        "role": "outer"
      }
    ],
    "tags": {
      "amenity": "school",
      "name": "Гимназия №47",
      "type": "multipolygon"
    }
  },
  {
    "type": "relation",
    "id": 2456821,
    "center": {
      "lat": 56.8290794,
      "lon": 60.5963561
    },
    "members": [
      {
        "type": "way",
        "ref": 184475583,
        "role": "outer"
      },
      {
        "type": "way",
        "ref": 39726224,
        "role": "outer"
      }
    ],
    "tags": {
      "amenity": "school",
      "name": "Школа №10",
      "type": "multipolygon"
    }
  },
  {
    "type": "relation",
    "id": 3466800,
    "center": {
      "lat": 56.8659312,
      "lon": 60.6353429
    },
    "members": [
      {
        "type": "way",
        "ref": 112306741,
        "role": "outer"
      },
      {
        "type": "way",
        "ref": 258301739,
        "role": "outer"
      },
      {
        "type": "way",
        "ref": 258299750,
        "role": "outer"
      },
      {
        "type": "way",
        "ref": 258301741,
        "role": "outer"
      },
      {
        "type": "way",
        "ref": 86878487,
        "role": "outer"
      }
    ],
    "tags": {
      "amenity": "school",
      "name": "Средняя школа № 125",
      "type": "multipolygon"
    }
  },
  {
    "type": "relation",
    "id": 8170746,
    "center": {
      "lat": 56.8702940,
      "lon": 60.5569848
    },
    "members": [
      {
        "type": "way",
        "ref": 164370980,
        "role": "outer"
      },
      {
        "type": "way",
        "ref": 575521552,
        "role": "outer"
      },
      {
        "type": "way",
        "ref": 575521553,
        "role": "outer"
      },
      {
        "type": "way",
        "ref": 575521554,
        "role": "outer"
      }
    ],
    "tags": {
      "amenity": "school",
      "barrier": "fence",
      "name": "Школа № 147",
      "type": "multipolygon"
    }
  },
  {
    "type": "relation",
    "id": 12741403,
    "center": {
      "lat": 56.7926191,
      "lon": 60.4910946
    },
    "members": [
      {
        "type": "way",
        "ref": 945515474,
        "role": "outer"
      },
      {
        "type": "way",
        "ref": 945515469,
        "role": "outer"
      },
      {
        "type": "way",
        "ref": 945515470,
        "role": "outer"
      },
      {
        "type": "way",
        "ref": 767439762,
        "role": "outer"
      }
    ],
    "tags": {
      "amenity": "school",
      "barrier": "fence",
      "name": "Школа № 31",
      "type": "multipolygon"
    }
  },
  {
    "type": "relation",
    "id": 13817689,
    "center": {
      "lat": 56.9060257,
      "lon": 60.6368532
    },
    "members": [
      {
        "type": "way",
        "ref": 1032890188,
        "role": "outer"
      },
      {
        "type": "way",
        "ref": 1032890189,
        "role": "outer"
      },
      {
        "type": "way",
        "ref": 137288860,
        "role": "outer"
      },
      {
        "type": "way",
        "ref": 236171885,
        "role": "outer"
      }
    ],
    "tags": {
      "amenity": "school",
      "name": "Школа №167",
      "type": "multipolygon"
    }
  },
  {
    "type": "relation",
    "id": 16411315,
    "center": {
      "lat": 56.8049031,
      "lon": 60.6196614
    },
    "members": [
      {
        "type": "way",
        "ref": 47027069,
        "role": "outer"
      },
      {
        "type": "way",
        "ref": 1212582287,
        "role": "outer"
      }
    ],
    "tags": {
      "amenity": "school",
      "name": "Школа №102",
      "type": "multipolygon"
    }
  }
  
    ]
  }
  